<?xml version="1.0" encoding="UTF-8"?>
<gpx schemaLocation="http://www.topografix.com/GPX/1/1 http://www.topografix.com/GPX/1/1/gpx.xsd" version="1.1" creator="bikerouter.de 2025.49" xmlns="http://www.topografix.com/GPX/1/1" xmlns:xsi="http://www.w3.org/2001/XMLSchema-instance" xsi:schemaLocation="http://www.topografix.com/GPX/1/1 http://www.topografix.com/GPX/1/1/gpx.xsd http://www.garmin.com/xmlschemas/GpxExtensions/v3 http://www.garmin.com/xmlschemas/GpxExtensionsv3.xsd http://www.garmin.com/xmlschemas/TrackPointExtension/v1 http://www.garmin.com/xmlschemas/TrackPointExtensionv1.xsd http://www.garmin.com/xmlschemas/PowerExtension/v1 http://www.garmin.com/xmlschemas/PowerExtensionv1.xsd http://www.topografix.com/GPX/gpx_style/0/2 http://www.topografix.com/GPX/gpx_style/0/2/gpx_style.xsd" xmlns:gpxtpx="http://www.garmin.com/xmlschemas/TrackPointExtension/v1" xmlns:gpxx="http://www.garmin.com/xmlschemas/GpxExtensions/v3" xmlns:gpxpx="http://www.garmin.com/xmlschemas/PowerExtension/v1" xmlns:gpx_style="http://www.topografix.com/GPX/gpx_style/0/2">
  <metadata>
    <name>Kirchbichl_KleinerPoelven_Schwoich_Kirchbichl</name>
    <author>
      <name>gpx.studio</name>
      <link href="https://gpx.studio"/>
    </author>
  </metadata>
  <wpt lat="47.525575" lon="12.105981">
    <ele>523.0926782127013</ele>
    <name>Kirchbichl</name>
    <type>from</type>
  </wpt>
  <wpt lat="47.544212" lon="12.141254">
    <ele>574.4269454148701</ele>
    <name>Neuwirt in Schwoich</name>
    <type>via</type>
  </wpt>
  <wpt lat="47.52557543363238" lon="12.105981215040714">
    <ele>523.3923767000468</ele>
    <name>Kirchbichl</name>
    <type>to</type>
  </wpt>
  <trk>
    <name>Kirchbichl - Kleiner Pölven - Schwoich - Kirchbichl</name>
    <link href="https://bikerouter.de/#map=15/47.5427/12.1286/osm-mapnik-german_style,terrarium-hillshading,Waymarked_Trails-Cycling,gravel-overlay&amp;lonlats=12.105981,47.525575;12.134468,47.518111;12.14233,47.517282;12.142416,47.5244;12.143497,47.541977;12.141254,47.544212;12.122122,47.546902;12.106019,47.525557&amp;profile=m11n-gravel-pre">
      <text>bikerouter.de</text>
    </link>
    <trkseg>
      <trkpt lat="47.525578" lon="12.105987">
        <ele>519.5</ele>
      </trkpt>
      <trkpt lat="47.525633" lon="12.105998">
        <ele>518.25</ele>
      </trkpt>
      <trkpt lat="47.525754" lon="12.106138">
        <ele>516.25</ele>
      </trkpt>
      <trkpt lat="47.525857" lon="12.106224">
        <ele>515.5</ele>
      </trkpt>
      <trkpt lat="47.526052" lon="12.106468">
        <ele>514.75</ele>
      </trkpt>
      <trkpt lat="47.52618" lon="12.106681">
        <ele>513.5</ele>
      </trkpt>
      <trkpt lat="47.526183" lon="12.106676">
        <ele>513.5</ele>
      </trkpt>
      <trkpt lat="47.526368" lon="12.107029">
        <ele>512.75</ele>
      </trkpt>
      <trkpt lat="47.526468" lon="12.107321">
        <ele>513.5</ele>
      </trkpt>
      <trkpt lat="47.52658" lon="12.107663">
        <ele>513.5</ele>
      </trkpt>
      <trkpt lat="47.526627" lon="12.107757">
        <ele>512.25</ele>
      </trkpt>
      <trkpt lat="47.526672" lon="12.107802">
        <ele>511</ele>
      </trkpt>
      <trkpt lat="47.526717" lon="12.107814">
        <ele>510.25</ele>
      </trkpt>
      <trkpt lat="47.526859" lon="12.107809">
        <ele>507.5</ele>
      </trkpt>
      <trkpt lat="47.52689" lon="12.108021">
        <ele>508</ele>
      </trkpt>
      <trkpt lat="47.526944" lon="12.108378">
        <ele>509</ele>
      </trkpt>
      <trkpt lat="47.526951" lon="12.10851">
        <ele>508.75</ele>
      </trkpt>
      <trkpt lat="47.526926" lon="12.108829">
        <ele>509.5</ele>
      </trkpt>
      <trkpt lat="47.526876" lon="12.109139">
        <ele>509.75</ele>
      </trkpt>
      <trkpt lat="47.526832" lon="12.109393">
        <ele>508.5</ele>
      </trkpt>
      <trkpt lat="47.526745" lon="12.10963">
        <ele>507</ele>
      </trkpt>
      <trkpt lat="47.526608" lon="12.109867">
        <ele>507.5</ele>
      </trkpt>
      <trkpt lat="47.526511" lon="12.110099">
        <ele>508</ele>
      </trkpt>
      <trkpt lat="47.526473" lon="12.11024">
        <ele>507.75</ele>
      </trkpt>
      <trkpt lat="47.526399" lon="12.110343">
        <ele>508.25</ele>
      </trkpt>
      <trkpt lat="47.52628" lon="12.110451">
        <ele>510.25</ele>
      </trkpt>
      <trkpt lat="47.526174" lon="12.110461">
        <ele>510.75</ele>
      </trkpt>
      <trkpt lat="47.526029" lon="12.110441">
        <ele>510.5</ele>
      </trkpt>
      <trkpt lat="47.525792" lon="12.110466">
        <ele>510.75</ele>
      </trkpt>
      <trkpt lat="47.52555" lon="12.110558">
        <ele>512</ele>
      </trkpt>
      <trkpt lat="47.52531" lon="12.110665">
        <ele>512.25</ele>
      </trkpt>
      <trkpt lat="47.525157" lon="12.110674">
        <ele>513.25</ele>
      </trkpt>
      <trkpt lat="47.524984" lon="12.110656">
        <ele>514</ele>
      </trkpt>
      <trkpt lat="47.524782" lon="12.110609">
        <ele>514.25</ele>
      </trkpt>
      <trkpt lat="47.524674" lon="12.110664">
        <ele>516.75</ele>
      </trkpt>
      <trkpt lat="47.524479" lon="12.110719">
        <ele>517.5</ele>
      </trkpt>
      <trkpt lat="47.524285" lon="12.110795">
        <ele>517.5</ele>
      </trkpt>
      <trkpt lat="47.524152" lon="12.110888">
        <ele>517.75</ele>
      </trkpt>
      <trkpt lat="47.524051" lon="12.110982">
        <ele>520</ele>
      </trkpt>
      <trkpt lat="47.523935" lon="12.111135">
        <ele>520.5</ele>
      </trkpt>
      <trkpt lat="47.523837" lon="12.111332">
        <ele>523.25</ele>
      </trkpt>
      <trkpt lat="47.523748" lon="12.111614">
        <ele>523</ele>
      </trkpt>
      <trkpt lat="47.523742" lon="12.111783">
        <ele>524.5</ele>
      </trkpt>
      <trkpt lat="47.523759" lon="12.112156">
        <ele>530.25</ele>
      </trkpt>
      <trkpt lat="47.523749" lon="12.11235">
        <ele>530.25</ele>
      </trkpt>
      <trkpt lat="47.523654" lon="12.113055">
        <ele>526</ele>
      </trkpt>
      <trkpt lat="47.523603" lon="12.113255">
        <ele>527.25</ele>
      </trkpt>
      <trkpt lat="47.523581" lon="12.11347">
        <ele>528.5</ele>
      </trkpt>
      <trkpt lat="47.52358" lon="12.11366">
        <ele>529.25</ele>
      </trkpt>
      <trkpt lat="47.523564" lon="12.113837">
        <ele>530.75</ele>
      </trkpt>
      <trkpt lat="47.523527" lon="12.114009">
        <ele>531.5</ele>
      </trkpt>
      <trkpt lat="47.523374" lon="12.114364">
        <ele>532.25</ele>
      </trkpt>
      <trkpt lat="47.523295" lon="12.114495">
        <ele>533.5</ele>
      </trkpt>
      <trkpt lat="47.523227" lon="12.114725">
        <ele>534.5</ele>
      </trkpt>
      <trkpt lat="47.523083" lon="12.115119">
        <ele>534.5</ele>
      </trkpt>
      <trkpt lat="47.522999" lon="12.115277">
        <ele>536</ele>
      </trkpt>
      <trkpt lat="47.522958" lon="12.115335">
        <ele>536.25</ele>
      </trkpt>
      <trkpt lat="47.522869" lon="12.115432">
        <ele>536.25</ele>
      </trkpt>
      <trkpt lat="47.522675" lon="12.115541">
        <ele>536.5</ele>
      </trkpt>
      <trkpt lat="47.52254" lon="12.115576">
        <ele>537.5</ele>
      </trkpt>
      <trkpt lat="47.522421" lon="12.115577">
        <ele>537.5</ele>
      </trkpt>
      <trkpt lat="47.522223" lon="12.115495">
        <ele>539.75</ele>
      </trkpt>
      <trkpt lat="47.521971" lon="12.115424">
        <ele>542.25</ele>
      </trkpt>
      <trkpt lat="47.521786" lon="12.115347">
        <ele>544</ele>
      </trkpt>
      <trkpt lat="47.521609" lon="12.115313">
        <ele>543</ele>
      </trkpt>
      <trkpt lat="47.521471" lon="12.115209">
        <ele>544.25</ele>
      </trkpt>
      <trkpt lat="47.521265" lon="12.114967">
        <ele>545</ele>
      </trkpt>
      <trkpt lat="47.521158" lon="12.114858">
        <ele>543.5</ele>
      </trkpt>
      <trkpt lat="47.521119" lon="12.114783">
        <ele>542.75</ele>
      </trkpt>
      <trkpt lat="47.520921" lon="12.114285">
        <ele>547.75</ele>
      </trkpt>
      <trkpt lat="47.520565" lon="12.113651">
        <ele>553.25</ele>
      </trkpt>
      <trkpt lat="47.520416" lon="12.113556">
        <ele>552.5</ele>
      </trkpt>
      <trkpt lat="47.520321" lon="12.113522">
        <ele>551.5</ele>
      </trkpt>
      <trkpt lat="47.520204" lon="12.11351">
        <ele>550.25</ele>
      </trkpt>
      <trkpt lat="47.520129" lon="12.11353">
        <ele>549.25</ele>
      </trkpt>
      <trkpt lat="47.520089" lon="12.113546">
        <ele>549</ele>
      </trkpt>
      <trkpt lat="47.520006" lon="12.113577">
        <ele>548.75</ele>
      </trkpt>
      <trkpt lat="47.519931" lon="12.113619">
        <ele>552.5</ele>
      </trkpt>
      <trkpt lat="47.519864" lon="12.113434">
        <ele>552.25</ele>
      </trkpt>
      <trkpt lat="47.519716" lon="12.113133">
        <ele>552.25</ele>
      </trkpt>
      <trkpt lat="47.519666" lon="12.113043">
        <ele>553</ele>
      </trkpt>
      <trkpt lat="47.519379" lon="12.112576">
        <ele>554.75</ele>
      </trkpt>
      <trkpt lat="47.519326" lon="12.112522">
        <ele>555</ele>
      </trkpt>
      <trkpt lat="47.519186" lon="12.112475">
        <ele>554.25</ele>
      </trkpt>
      <trkpt lat="47.519139" lon="12.112445">
        <ele>555</ele>
      </trkpt>
      <trkpt lat="47.51908" lon="12.112383">
        <ele>556.5</ele>
      </trkpt>
      <trkpt lat="47.519017" lon="12.112281">
        <ele>557</ele>
      </trkpt>
      <trkpt lat="47.518979" lon="12.11219">
        <ele>556.75</ele>
      </trkpt>
      <trkpt lat="47.518967" lon="12.11211">
        <ele>557.25</ele>
      </trkpt>
      <trkpt lat="47.518973" lon="12.111995">
        <ele>558.75</ele>
      </trkpt>
      <trkpt lat="47.518965" lon="12.111872">
        <ele>560.25</ele>
      </trkpt>
      <trkpt lat="47.518951" lon="12.111797">
        <ele>561</ele>
      </trkpt>
      <trkpt lat="47.518933" lon="12.11174">
        <ele>561.25</ele>
      </trkpt>
      <trkpt lat="47.518906" lon="12.111693">
        <ele>561</ele>
      </trkpt>
      <trkpt lat="47.518814" lon="12.111614">
        <ele>562</ele>
      </trkpt>
      <trkpt lat="47.518616" lon="12.111515">
        <ele>563</ele>
      </trkpt>
      <trkpt lat="47.51838" lon="12.111364">
        <ele>568.25</ele>
      </trkpt>
      <trkpt lat="47.518279" lon="12.111257">
        <ele>569.5</ele>
      </trkpt>
      <trkpt lat="47.518229" lon="12.111187">
        <ele>570.5</ele>
      </trkpt>
      <trkpt lat="47.518196" lon="12.111141">
        <ele>571.5</ele>
      </trkpt>
      <trkpt lat="47.518033" lon="12.111376">
        <ele>568.5</ele>
      </trkpt>
      <trkpt lat="47.517763" lon="12.111679">
        <ele>566.75</ele>
      </trkpt>
      <trkpt lat="47.51766" lon="12.111822">
        <ele>564.25</ele>
      </trkpt>
      <trkpt lat="47.517527" lon="12.112044">
        <ele>562.25</ele>
      </trkpt>
      <trkpt lat="47.517416" lon="12.112144">
        <ele>561.5</ele>
      </trkpt>
      <trkpt lat="47.517274" lon="12.112365">
        <ele>561.5</ele>
      </trkpt>
      <trkpt lat="47.517246" lon="12.11243">
        <ele>561.75</ele>
      </trkpt>
      <trkpt lat="47.517224" lon="12.112534">
        <ele>562</ele>
      </trkpt>
      <trkpt lat="47.517217" lon="12.112614">
        <ele>562.75</ele>
      </trkpt>
      <trkpt lat="47.517219" lon="12.112686">
        <ele>563.25</ele>
      </trkpt>
      <trkpt lat="47.517279" lon="12.113088">
        <ele>563.75</ele>
      </trkpt>
      <trkpt lat="47.517296" lon="12.11334">
        <ele>565</ele>
      </trkpt>
      <trkpt lat="47.517292" lon="12.113532">
        <ele>567.75</ele>
      </trkpt>
      <trkpt lat="47.517259" lon="12.114037">
        <ele>571</ele>
      </trkpt>
      <trkpt lat="47.517254" lon="12.114375">
        <ele>572.5</ele>
      </trkpt>
      <trkpt lat="47.517142" lon="12.114683">
        <ele>571.75</ele>
      </trkpt>
      <trkpt lat="47.517074" lon="12.114943">
        <ele>573.25</ele>
      </trkpt>
      <trkpt lat="47.516972" lon="12.115413">
        <ele>574.75</ele>
      </trkpt>
      <trkpt lat="47.516868" lon="12.115997">
        <ele>575.25</ele>
      </trkpt>
      <trkpt lat="47.516795" lon="12.116324">
        <ele>575.75</ele>
      </trkpt>
      <trkpt lat="47.516737" lon="12.116493">
        <ele>576</ele>
      </trkpt>
      <trkpt lat="47.516544" lon="12.116921">
        <ele>577.25</ele>
      </trkpt>
      <trkpt lat="47.516454" lon="12.117182">
        <ele>578.25</ele>
      </trkpt>
      <trkpt lat="47.516415" lon="12.117322">
        <ele>577.5</ele>
      </trkpt>
      <trkpt lat="47.516328" lon="12.117715">
        <ele>577.5</ele>
      </trkpt>
      <trkpt lat="47.516226" lon="12.118138">
        <ele>578</ele>
      </trkpt>
      <trkpt lat="47.516201" lon="12.118296">
        <ele>578</ele>
      </trkpt>
      <trkpt lat="47.516189" lon="12.118422">
        <ele>578.25</ele>
      </trkpt>
      <trkpt lat="47.516187" lon="12.118559">
        <ele>578.25</ele>
      </trkpt>
      <trkpt lat="47.516189" lon="12.118673">
        <ele>578.5</ele>
      </trkpt>
      <trkpt lat="47.5162" lon="12.118804">
        <ele>579</ele>
      </trkpt>
      <trkpt lat="47.516245" lon="12.119056">
        <ele>580.25</ele>
      </trkpt>
      <trkpt lat="47.516306" lon="12.119263">
        <ele>581</ele>
      </trkpt>
      <trkpt lat="47.516055" lon="12.119515">
        <ele>580.75</ele>
      </trkpt>
      <trkpt lat="47.515983" lon="12.119614">
        <ele>580.75</ele>
      </trkpt>
      <trkpt lat="47.51595" lon="12.119657">
        <ele>580.75</ele>
      </trkpt>
      <trkpt lat="47.515842" lon="12.11982">
        <ele>581</ele>
      </trkpt>
      <trkpt lat="47.515767" lon="12.119927">
        <ele>580.75</ele>
      </trkpt>
      <trkpt lat="47.515706" lon="12.119989">
        <ele>580.75</ele>
      </trkpt>
      <trkpt lat="47.515503" lon="12.120154">
        <ele>581.25</ele>
      </trkpt>
      <trkpt lat="47.515465" lon="12.120185">
        <ele>581.25</ele>
      </trkpt>
      <trkpt lat="47.515575" lon="12.12024">
        <ele>581.75</ele>
      </trkpt>
      <trkpt lat="47.51562" lon="12.120285">
        <ele>581.75</ele>
      </trkpt>
      <trkpt lat="47.515659" lon="12.120342">
        <ele>581.75</ele>
      </trkpt>
      <trkpt lat="47.515713" lon="12.120441">
        <ele>582</ele>
      </trkpt>
      <trkpt lat="47.515918" lon="12.120849">
        <ele>583</ele>
      </trkpt>
      <trkpt lat="47.516072" lon="12.121089">
        <ele>583.75</ele>
      </trkpt>
      <trkpt lat="47.516145" lon="12.121246">
        <ele>584.25</ele>
      </trkpt>
      <trkpt lat="47.516183" lon="12.121336">
        <ele>584.75</ele>
      </trkpt>
      <trkpt lat="47.516272" lon="12.121537">
        <ele>586</ele>
      </trkpt>
      <trkpt lat="47.516338" lon="12.121646">
        <ele>586.5</ele>
      </trkpt>
      <trkpt lat="47.516399" lon="12.12173">
        <ele>586.75</ele>
      </trkpt>
      <trkpt lat="47.516511" lon="12.121844">
        <ele>587.75</ele>
      </trkpt>
      <trkpt lat="47.516493" lon="12.121945">
        <ele>587</ele>
      </trkpt>
      <trkpt lat="47.5165" lon="12.122066">
        <ele>586.75</ele>
      </trkpt>
      <trkpt lat="47.516603" lon="12.122346">
        <ele>586.75</ele>
      </trkpt>
      <trkpt lat="47.516741" lon="12.122664">
        <ele>587.5</ele>
      </trkpt>
      <trkpt lat="47.516956" lon="12.123098">
        <ele>588</ele>
      </trkpt>
      <trkpt lat="47.517001" lon="12.123203">
        <ele>588.25</ele>
      </trkpt>
      <trkpt lat="47.517029" lon="12.123294">
        <ele>588.25</ele>
      </trkpt>
      <trkpt lat="47.517042" lon="12.123375">
        <ele>588.5</ele>
      </trkpt>
      <trkpt lat="47.517177" lon="12.124031">
        <ele>590.25</ele>
      </trkpt>
      <trkpt lat="47.517223" lon="12.124353">
        <ele>590.5</ele>
      </trkpt>
      <trkpt lat="47.517306" lon="12.124776">
        <ele>592.75</ele>
      </trkpt>
      <trkpt lat="47.517318" lon="12.124964">
        <ele>594</ele>
      </trkpt>
      <trkpt lat="47.517325" lon="12.125145">
        <ele>594.75</ele>
      </trkpt>
      <trkpt lat="47.517325" lon="12.125397">
        <ele>595.5</ele>
      </trkpt>
      <trkpt lat="47.517344" lon="12.125644">
        <ele>595.5</ele>
      </trkpt>
      <trkpt lat="47.517367" lon="12.125844">
        <ele>594.75</ele>
      </trkpt>
      <trkpt lat="47.517417" lon="12.126053">
        <ele>595</ele>
      </trkpt>
      <trkpt lat="47.517482" lon="12.126214">
        <ele>594.5</ele>
      </trkpt>
      <trkpt lat="47.517552" lon="12.126432">
        <ele>596</ele>
      </trkpt>
      <trkpt lat="47.517561" lon="12.126539">
        <ele>596.5</ele>
      </trkpt>
      <trkpt lat="47.517558" lon="12.126632">
        <ele>596.75</ele>
      </trkpt>
      <trkpt lat="47.517519" lon="12.126828">
        <ele>596.25</ele>
      </trkpt>
      <trkpt lat="47.51749" lon="12.126927">
        <ele>596</ele>
      </trkpt>
      <trkpt lat="47.517466" lon="12.127123">
        <ele>596.75</ele>
      </trkpt>
      <trkpt lat="47.517486" lon="12.127237">
        <ele>597</ele>
      </trkpt>
      <trkpt lat="47.517523" lon="12.127342">
        <ele>597.75</ele>
      </trkpt>
      <trkpt lat="47.517597" lon="12.127435">
        <ele>598.25</ele>
      </trkpt>
      <trkpt lat="47.517735" lon="12.127528">
        <ele>598</ele>
      </trkpt>
      <trkpt lat="47.517819" lon="12.127614">
        <ele>598</ele>
      </trkpt>
      <trkpt lat="47.517892" lon="12.127723">
        <ele>598.25</ele>
      </trkpt>
      <trkpt lat="47.517934" lon="12.127853">
        <ele>599</ele>
      </trkpt>
      <trkpt lat="47.517942" lon="12.127994">
        <ele>600</ele>
      </trkpt>
      <trkpt lat="47.517942" lon="12.128204">
        <ele>601.25</ele>
      </trkpt>
      <trkpt lat="47.517954" lon="12.128404">
        <ele>602.25</ele>
      </trkpt>
      <trkpt lat="47.51798" lon="12.128629">
        <ele>603</ele>
      </trkpt>
      <trkpt lat="47.517991" lon="12.128885">
        <ele>603.75</ele>
      </trkpt>
      <trkpt lat="47.517984" lon="12.129099">
        <ele>604.75</ele>
      </trkpt>
      <trkpt lat="47.517962" lon="12.12937">
        <ele>605.5</ele>
      </trkpt>
      <trkpt lat="47.517964" lon="12.129493">
        <ele>606.25</ele>
      </trkpt>
      <trkpt lat="47.518001" lon="12.129815">
        <ele>608</ele>
      </trkpt>
      <trkpt lat="47.518006" lon="12.130009">
        <ele>608.75</ele>
      </trkpt>
      <trkpt lat="47.518" lon="12.13016">
        <ele>609.25</ele>
      </trkpt>
      <trkpt lat="47.517988" lon="12.13029">
        <ele>610</ele>
      </trkpt>
      <trkpt lat="47.517999" lon="12.130382">
        <ele>610.25</ele>
      </trkpt>
      <trkpt lat="47.518017" lon="12.130438">
        <ele>610.5</ele>
      </trkpt>
      <trkpt lat="47.518107" lon="12.130566">
        <ele>610.75</ele>
      </trkpt>
      <trkpt lat="47.518189" lon="12.130723">
        <ele>611.25</ele>
      </trkpt>
      <trkpt lat="47.5183" lon="12.131044">
        <ele>613.5</ele>
      </trkpt>
      <trkpt lat="47.518321" lon="12.131147">
        <ele>614.25</ele>
      </trkpt>
      <trkpt lat="47.518345" lon="12.131319">
        <ele>615.25</ele>
      </trkpt>
      <trkpt lat="47.518346" lon="12.13139">
        <ele>615.75</ele>
      </trkpt>
      <trkpt lat="47.518333" lon="12.131561">
        <ele>616.5</ele>
      </trkpt>
      <trkpt lat="47.518338" lon="12.131696">
        <ele>617</ele>
      </trkpt>
      <trkpt lat="47.518332" lon="12.131769">
        <ele>617.25</ele>
      </trkpt>
      <trkpt lat="47.518291" lon="12.132003">
        <ele>618.25</ele>
      </trkpt>
      <trkpt lat="47.518246" lon="12.132052">
        <ele>618.5</ele>
      </trkpt>
      <trkpt lat="47.51818" lon="12.132577">
        <ele>623.5</ele>
      </trkpt>
      <trkpt lat="47.518178" lon="12.132757">
        <ele>625.75</ele>
      </trkpt>
      <trkpt lat="47.518134" lon="12.133041">
        <ele>627.5</ele>
      </trkpt>
      <trkpt lat="47.518105" lon="12.133238">
        <ele>629.5</ele>
      </trkpt>
      <trkpt lat="47.518035" lon="12.133823">
        <ele>633.75</ele>
      </trkpt>
      <trkpt lat="47.518043" lon="12.134129">
        <ele>636.5</ele>
      </trkpt>
      <trkpt lat="47.518114" lon="12.134428">
        <ele>639</ele>
      </trkpt>
      <trkpt lat="47.518115" lon="12.134466">
        <ele>638.5</ele>
      </trkpt>
      <trkpt lat="47.518123" lon="12.134646">
        <ele>638.5</ele>
      </trkpt>
      <trkpt lat="47.518044" lon="12.134844">
        <ele>638.5</ele>
      </trkpt>
      <trkpt lat="47.517961" lon="12.13502">
        <ele>639.25</ele>
      </trkpt>
      <trkpt lat="47.517823" lon="12.135194">
        <ele>640.5</ele>
      </trkpt>
      <trkpt lat="47.517779" lon="12.135263">
        <ele>641</ele>
      </trkpt>
      <trkpt lat="47.517729" lon="12.135342">
        <ele>642.25</ele>
      </trkpt>
      <trkpt lat="47.51771" lon="12.135528">
        <ele>644.75</ele>
      </trkpt>
      <trkpt lat="47.517797" lon="12.135741">
        <ele>645.25</ele>
      </trkpt>
      <trkpt lat="47.517928" lon="12.135922">
        <ele>646.25</ele>
      </trkpt>
      <trkpt lat="47.518071" lon="12.13618">
        <ele>647.25</ele>
      </trkpt>
      <trkpt lat="47.518223" lon="12.136508">
        <ele>649</ele>
      </trkpt>
      <trkpt lat="47.518307" lon="12.136805">
        <ele>652.5</ele>
      </trkpt>
      <trkpt lat="47.518413" lon="12.137021">
        <ele>655.5</ele>
      </trkpt>
      <trkpt lat="47.51853" lon="12.137189">
        <ele>657.5</ele>
      </trkpt>
      <trkpt lat="47.518708" lon="12.137389">
        <ele>659.75</ele>
      </trkpt>
      <trkpt lat="47.518813" lon="12.137555">
        <ele>662</ele>
      </trkpt>
      <trkpt lat="47.518898" lon="12.137769">
        <ele>663.75</ele>
      </trkpt>
      <trkpt lat="47.518976" lon="12.13805">
        <ele>665</ele>
      </trkpt>
      <trkpt lat="47.519115" lon="12.138478">
        <ele>668.75</ele>
      </trkpt>
      <trkpt lat="47.519228" lon="12.138689">
        <ele>670.75</ele>
      </trkpt>
      <trkpt lat="47.519368" lon="12.138871">
        <ele>672.25</ele>
      </trkpt>
      <trkpt lat="47.519479" lon="12.139127">
        <ele>674.5</ele>
      </trkpt>
      <trkpt lat="47.519515" lon="12.13933">
        <ele>677</ele>
      </trkpt>
      <trkpt lat="47.519624" lon="12.139558">
        <ele>678.5</ele>
      </trkpt>
      <trkpt lat="47.519663" lon="12.1397">
        <ele>680.25</ele>
      </trkpt>
      <trkpt lat="47.51965" lon="12.139878">
        <ele>681.75</ele>
      </trkpt>
      <trkpt lat="47.519585" lon="12.139883">
        <ele>682.75</ele>
      </trkpt>
      <trkpt lat="47.519434" lon="12.139861">
        <ele>685</ele>
      </trkpt>
      <trkpt lat="47.519292" lon="12.139769">
        <ele>687.25</ele>
      </trkpt>
      <trkpt lat="47.519094" lon="12.139584">
        <ele>690</ele>
      </trkpt>
      <trkpt lat="47.518951" lon="12.139489">
        <ele>692.25</ele>
      </trkpt>
      <trkpt lat="47.518771" lon="12.139419">
        <ele>695</ele>
      </trkpt>
      <trkpt lat="47.518631" lon="12.139287">
        <ele>696.5</ele>
      </trkpt>
      <trkpt lat="47.518422" lon="12.139165">
        <ele>698.5</ele>
      </trkpt>
      <trkpt lat="47.518181" lon="12.139076">
        <ele>701</ele>
      </trkpt>
      <trkpt lat="47.518042" lon="12.138985">
        <ele>700.5</ele>
      </trkpt>
      <trkpt lat="47.517949" lon="12.13884">
        <ele>700.75</ele>
      </trkpt>
      <trkpt lat="47.517806" lon="12.138519">
        <ele>699.25</ele>
      </trkpt>
      <trkpt lat="47.517672" lon="12.138121">
        <ele>700.5</ele>
      </trkpt>
      <trkpt lat="47.517502" lon="12.137805">
        <ele>698.75</ele>
      </trkpt>
      <trkpt lat="47.517143" lon="12.137349">
        <ele>702</ele>
      </trkpt>
      <trkpt lat="47.516962" lon="12.137104">
        <ele>704.75</ele>
      </trkpt>
      <trkpt lat="47.516783" lon="12.13691">
        <ele>708.75</ele>
      </trkpt>
      <trkpt lat="47.516678" lon="12.13675">
        <ele>709.75</ele>
      </trkpt>
      <trkpt lat="47.516556" lon="12.136635">
        <ele>710.5</ele>
      </trkpt>
      <trkpt lat="47.516499" lon="12.1366">
        <ele>711.25</ele>
      </trkpt>
      <trkpt lat="47.516422" lon="12.13656">
        <ele>712.5</ele>
      </trkpt>
      <trkpt lat="47.516363" lon="12.136587">
        <ele>713</ele>
      </trkpt>
      <trkpt lat="47.516208" lon="12.136705">
        <ele>715</ele>
      </trkpt>
      <trkpt lat="47.516094" lon="12.136758">
        <ele>716.5</ele>
      </trkpt>
      <trkpt lat="47.516045" lon="12.136858">
        <ele>718</ele>
      </trkpt>
      <trkpt lat="47.516033" lon="12.137009">
        <ele>720.75</ele>
      </trkpt>
      <trkpt lat="47.51605" lon="12.137307">
        <ele>724.5</ele>
      </trkpt>
      <trkpt lat="47.516039" lon="12.137554">
        <ele>726.75</ele>
      </trkpt>
      <trkpt lat="47.516033" lon="12.137986">
        <ele>733.25</ele>
      </trkpt>
      <trkpt lat="47.516001" lon="12.138133">
        <ele>736</ele>
      </trkpt>
      <trkpt lat="47.515916" lon="12.138189">
        <ele>735.5</ele>
      </trkpt>
      <trkpt lat="47.515849" lon="12.138155">
        <ele>733.75</ele>
      </trkpt>
      <trkpt lat="47.515779" lon="12.138021">
        <ele>733.75</ele>
      </trkpt>
      <trkpt lat="47.515674" lon="12.13793">
        <ele>736.25</ele>
      </trkpt>
      <trkpt lat="47.51565" lon="12.137779">
        <ele>736</ele>
      </trkpt>
      <trkpt lat="47.515564" lon="12.137666">
        <ele>737.75</ele>
      </trkpt>
      <trkpt lat="47.515431" lon="12.137597">
        <ele>738.75</ele>
      </trkpt>
      <trkpt lat="47.515271" lon="12.137635">
        <ele>743.25</ele>
      </trkpt>
      <trkpt lat="47.515131" lon="12.137688">
        <ele>744</ele>
      </trkpt>
      <trkpt lat="47.514999" lon="12.137865">
        <ele>747.75</ele>
      </trkpt>
      <trkpt lat="47.514796" lon="12.138029">
        <ele>751.25</ele>
      </trkpt>
      <trkpt lat="47.514412" lon="12.138213">
        <ele>755</ele>
      </trkpt>
      <trkpt lat="47.5143" lon="12.138309">
        <ele>759.25</ele>
      </trkpt>
      <trkpt lat="47.514323" lon="12.138397">
        <ele>761.25</ele>
      </trkpt>
      <trkpt lat="47.514436" lon="12.138378">
        <ele>760</ele>
      </trkpt>
      <trkpt lat="47.514562" lon="12.138323">
        <ele>759.25</ele>
      </trkpt>
      <trkpt lat="47.51482" lon="12.1385">
        <ele>764.25</ele>
      </trkpt>
      <trkpt lat="47.514903" lon="12.13858">
        <ele>765.25</ele>
      </trkpt>
      <trkpt lat="47.51492" lon="12.138757">
        <ele>768.5</ele>
      </trkpt>
      <trkpt lat="47.514981" lon="12.138884">
        <ele>770</ele>
      </trkpt>
      <trkpt lat="47.515085" lon="12.138971">
        <ele>770.25</ele>
      </trkpt>
      <trkpt lat="47.515151" lon="12.139106">
        <ele>771.75</ele>
      </trkpt>
      <trkpt lat="47.515215" lon="12.139331">
        <ele>775.25</ele>
      </trkpt>
      <trkpt lat="47.515372" lon="12.139496">
        <ele>778.25</ele>
      </trkpt>
      <trkpt lat="47.515536" lon="12.139526">
        <ele>779.25</ele>
      </trkpt>
      <trkpt lat="47.515676" lon="12.139622">
        <ele>778.75</ele>
      </trkpt>
      <trkpt lat="47.515732" lon="12.139827">
        <ele>781.5</ele>
      </trkpt>
      <trkpt lat="47.51584" lon="12.140314">
        <ele>785.25</ele>
      </trkpt>
      <trkpt lat="47.51593" lon="12.14055">
        <ele>787</ele>
      </trkpt>
      <trkpt lat="47.516174" lon="12.140892">
        <ele>791.5</ele>
      </trkpt>
      <trkpt lat="47.516323" lon="12.141015">
        <ele>794</ele>
      </trkpt>
      <trkpt lat="47.516397" lon="12.14103">
        <ele>794.5</ele>
      </trkpt>
      <trkpt lat="47.51645" lon="12.140976">
        <ele>795.25</ele>
      </trkpt>
      <trkpt lat="47.516439" lon="12.140877">
        <ele>794.25</ele>
      </trkpt>
      <trkpt lat="47.516484" lon="12.140768">
        <ele>794</ele>
      </trkpt>
      <trkpt lat="47.51659" lon="12.140773">
        <ele>796</ele>
      </trkpt>
      <trkpt lat="47.516668" lon="12.140862">
        <ele>798.25</ele>
      </trkpt>
      <trkpt lat="47.516735" lon="12.140987">
        <ele>800.25</ele>
      </trkpt>
      <trkpt lat="47.516893" lon="12.141169">
        <ele>802.25</ele>
      </trkpt>
      <trkpt lat="47.516939" lon="12.14131">
        <ele>803.25</ele>
      </trkpt>
      <trkpt lat="47.516956" lon="12.141623">
        <ele>807</ele>
      </trkpt>
      <trkpt lat="47.517147" lon="12.141899">
        <ele>809.25</ele>
      </trkpt>
      <trkpt lat="47.517249" lon="12.142102">
        <ele>810.75</ele>
      </trkpt>
      <trkpt lat="47.517309" lon="12.142285">
        <ele>810.5</ele>
      </trkpt>
      <trkpt lat="47.517308" lon="12.14233">
        <ele>811.5</ele>
      </trkpt>
      <trkpt lat="47.517308" lon="12.142478">
        <ele>811.5</ele>
      </trkpt>
      <trkpt lat="47.517311" lon="12.142699">
        <ele>812.5</ele>
      </trkpt>
      <trkpt lat="47.51733" lon="12.142894">
        <ele>813.5</ele>
      </trkpt>
      <trkpt lat="47.517384" lon="12.142975">
        <ele>812.75</ele>
      </trkpt>
      <trkpt lat="47.517571" lon="12.143027">
        <ele>808.75</ele>
      </trkpt>
      <trkpt lat="47.517738" lon="12.143137">
        <ele>807.75</ele>
      </trkpt>
      <trkpt lat="47.517862" lon="12.143329">
        <ele>806.25</ele>
      </trkpt>
      <trkpt lat="47.518152" lon="12.14395">
        <ele>801</ele>
      </trkpt>
      <trkpt lat="47.518355" lon="12.144243">
        <ele>796</ele>
      </trkpt>
      <trkpt lat="47.51846" lon="12.144567">
        <ele>793.5</ele>
      </trkpt>
      <trkpt lat="47.518569" lon="12.144752">
        <ele>791.5</ele>
      </trkpt>
      <trkpt lat="47.518677" lon="12.144885">
        <ele>790.25</ele>
      </trkpt>
      <trkpt lat="47.518843" lon="12.145024">
        <ele>788</ele>
      </trkpt>
      <trkpt lat="47.519062" lon="12.145393">
        <ele>785.25</ele>
      </trkpt>
      <trkpt lat="47.519376" lon="12.146071">
        <ele>780.5</ele>
      </trkpt>
      <trkpt lat="47.519525" lon="12.146337">
        <ele>779</ele>
      </trkpt>
      <trkpt lat="47.519595" lon="12.14657">
        <ele>776.5</ele>
      </trkpt>
      <trkpt lat="47.519615" lon="12.146853">
        <ele>775.25</ele>
      </trkpt>
      <trkpt lat="47.519649" lon="12.147052">
        <ele>774.5</ele>
      </trkpt>
      <trkpt lat="47.519722" lon="12.147174">
        <ele>772.25</ele>
      </trkpt>
      <trkpt lat="47.519928" lon="12.147206">
        <ele>769</ele>
      </trkpt>
      <trkpt lat="47.520013" lon="12.147287">
        <ele>769.5</ele>
      </trkpt>
      <trkpt lat="47.520282" lon="12.147324">
        <ele>767.75</ele>
      </trkpt>
      <trkpt lat="47.520424" lon="12.147373">
        <ele>766.5</ele>
      </trkpt>
      <trkpt lat="47.520492" lon="12.147412">
        <ele>766.25</ele>
      </trkpt>
      <trkpt lat="47.520537" lon="12.14735">
        <ele>764</ele>
      </trkpt>
      <trkpt lat="47.520505" lon="12.14724">
        <ele>762</ele>
      </trkpt>
      <trkpt lat="47.520431" lon="12.147194">
        <ele>762</ele>
      </trkpt>
      <trkpt lat="47.520339" lon="12.147056">
        <ele>760.5</ele>
      </trkpt>
      <trkpt lat="47.520268" lon="12.146889">
        <ele>757.75</ele>
      </trkpt>
      <trkpt lat="47.520266" lon="12.146756">
        <ele>755</ele>
      </trkpt>
      <trkpt lat="47.520321" lon="12.146686">
        <ele>752.75</ele>
      </trkpt>
      <trkpt lat="47.520417" lon="12.146704">
        <ele>752</ele>
      </trkpt>
      <trkpt lat="47.520731" lon="12.146861">
        <ele>750.5</ele>
      </trkpt>
      <trkpt lat="47.521066" lon="12.146972">
        <ele>745.75</ele>
      </trkpt>
      <trkpt lat="47.521241" lon="12.146981">
        <ele>743.5</ele>
      </trkpt>
      <trkpt lat="47.521517" lon="12.146867">
        <ele>737</ele>
      </trkpt>
      <trkpt lat="47.521633" lon="12.146884">
        <ele>735.75</ele>
      </trkpt>
      <trkpt lat="47.521783" lon="12.147112">
        <ele>734</ele>
      </trkpt>
      <trkpt lat="47.52187" lon="12.147265">
        <ele>733</ele>
      </trkpt>
      <trkpt lat="47.521982" lon="12.147333">
        <ele>731.25</ele>
      </trkpt>
      <trkpt lat="47.522024" lon="12.147283">
        <ele>729.25</ele>
      </trkpt>
      <trkpt lat="47.521978" lon="12.147168">
        <ele>729</ele>
      </trkpt>
      <trkpt lat="47.52196" lon="12.146965">
        <ele>728.5</ele>
      </trkpt>
      <trkpt lat="47.521985" lon="12.146741">
        <ele>726.5</ele>
      </trkpt>
      <trkpt lat="47.522014" lon="12.146576">
        <ele>724.5</ele>
      </trkpt>
      <trkpt lat="47.522017" lon="12.146438">
        <ele>723</ele>
      </trkpt>
      <trkpt lat="47.521981" lon="12.146334">
        <ele>721.5</ele>
      </trkpt>
      <trkpt lat="47.521841" lon="12.146297">
        <ele>721.5</ele>
      </trkpt>
      <trkpt lat="47.521756" lon="12.146183">
        <ele>719.75</ele>
      </trkpt>
      <trkpt lat="47.521742" lon="12.146037">
        <ele>718</ele>
      </trkpt>
      <trkpt lat="47.52177" lon="12.145766">
        <ele>715.25</ele>
      </trkpt>
      <trkpt lat="47.521791" lon="12.145469">
        <ele>712.5</ele>
      </trkpt>
      <trkpt lat="47.521794" lon="12.145106">
        <ele>708.25</ele>
      </trkpt>
      <trkpt lat="47.521743" lon="12.144928">
        <ele>706.25</ele>
      </trkpt>
      <trkpt lat="47.52166" lon="12.144694">
        <ele>703.75</ele>
      </trkpt>
      <trkpt lat="47.521564" lon="12.144329">
        <ele>702.25</ele>
      </trkpt>
      <trkpt lat="47.521595" lon="12.144235">
        <ele>701.5</ele>
      </trkpt>
      <trkpt lat="47.521663" lon="12.144227">
        <ele>699.5</ele>
      </trkpt>
      <trkpt lat="47.521805" lon="12.144324">
        <ele>698</ele>
      </trkpt>
      <trkpt lat="47.521899" lon="12.144321">
        <ele>696.75</ele>
      </trkpt>
      <trkpt lat="47.521981" lon="12.144223">
        <ele>694.5</ele>
      </trkpt>
      <trkpt lat="47.522066" lon="12.144025">
        <ele>692</ele>
      </trkpt>
      <trkpt lat="47.522152" lon="12.143909">
        <ele>690.25</ele>
      </trkpt>
      <trkpt lat="47.522243" lon="12.143907">
        <ele>689.75</ele>
      </trkpt>
      <trkpt lat="47.522447" lon="12.144018">
        <ele>687.25</ele>
      </trkpt>
      <trkpt lat="47.522573" lon="12.144026">
        <ele>685.25</ele>
      </trkpt>
      <trkpt lat="47.522752" lon="12.144003">
        <ele>682.5</ele>
      </trkpt>
      <trkpt lat="47.522881" lon="12.144018">
        <ele>680.5</ele>
      </trkpt>
      <trkpt lat="47.523126" lon="12.144102">
        <ele>677.25</ele>
      </trkpt>
      <trkpt lat="47.52337" lon="12.144221">
        <ele>674</ele>
      </trkpt>
      <trkpt lat="47.523847" lon="12.144569">
        <ele>667.75</ele>
      </trkpt>
      <trkpt lat="47.523888" lon="12.144561">
        <ele>666.75</ele>
      </trkpt>
      <trkpt lat="47.52392" lon="12.144496">
        <ele>666</ele>
      </trkpt>
      <trkpt lat="47.523925" lon="12.144229">
        <ele>664.5</ele>
      </trkpt>
      <trkpt lat="47.523972" lon="12.1439">
        <ele>662.5</ele>
      </trkpt>
      <trkpt lat="47.524233" lon="12.1432">
        <ele>655.75</ele>
      </trkpt>
      <trkpt lat="47.524304" lon="12.142581">
        <ele>651</ele>
      </trkpt>
      <trkpt lat="47.524365" lon="12.142391">
        <ele>648.75</ele>
      </trkpt>
      <trkpt lat="47.524387" lon="12.142326">
        <ele>648.75</ele>
      </trkpt>
      <trkpt lat="47.524466" lon="12.142331">
        <ele>648</ele>
      </trkpt>
      <trkpt lat="47.524638" lon="12.142252">
        <ele>646</ele>
      </trkpt>
      <trkpt lat="47.524718" lon="12.142242">
        <ele>645</ele>
      </trkpt>
      <trkpt lat="47.524812" lon="12.14225">
        <ele>644.25</ele>
      </trkpt>
      <trkpt lat="47.524883" lon="12.142272">
        <ele>644</ele>
      </trkpt>
      <trkpt lat="47.525162" lon="12.142457">
        <ele>643.5</ele>
      </trkpt>
      <trkpt lat="47.525337" lon="12.142626">
        <ele>642.75</ele>
      </trkpt>
      <trkpt lat="47.525413" lon="12.14269">
        <ele>642.5</ele>
      </trkpt>
      <trkpt lat="47.525593" lon="12.142771">
        <ele>641.5</ele>
      </trkpt>
      <trkpt lat="47.525919" lon="12.142875">
        <ele>640</ele>
      </trkpt>
      <trkpt lat="47.526026" lon="12.142924">
        <ele>639.5</ele>
      </trkpt>
      <trkpt lat="47.526198" lon="12.143066">
        <ele>639</ele>
      </trkpt>
      <trkpt lat="47.526426" lon="12.143407">
        <ele>638.75</ele>
      </trkpt>
      <trkpt lat="47.526568" lon="12.143652">
        <ele>637.5</ele>
      </trkpt>
      <trkpt lat="47.526708" lon="12.143951">
        <ele>637.5</ele>
      </trkpt>
      <trkpt lat="47.526833" lon="12.144261">
        <ele>637</ele>
      </trkpt>
      <trkpt lat="47.526933" lon="12.144451">
        <ele>637</ele>
      </trkpt>
      <trkpt lat="47.527077" lon="12.144691">
        <ele>636.25</ele>
      </trkpt>
      <trkpt lat="47.5273" lon="12.145008">
        <ele>635</ele>
      </trkpt>
      <trkpt lat="47.527441" lon="12.145182">
        <ele>633.75</ele>
      </trkpt>
      <trkpt lat="47.527658" lon="12.145493">
        <ele>633.25</ele>
      </trkpt>
      <trkpt lat="47.527716" lon="12.14547">
        <ele>632.25</ele>
      </trkpt>
      <trkpt lat="47.527974" lon="12.145157">
        <ele>628.25</ele>
      </trkpt>
      <trkpt lat="47.528116" lon="12.145046">
        <ele>626.5</ele>
      </trkpt>
      <trkpt lat="47.528406" lon="12.144776">
        <ele>623.5</ele>
      </trkpt>
      <trkpt lat="47.528603" lon="12.144593">
        <ele>621.5</ele>
      </trkpt>
      <trkpt lat="47.528761" lon="12.14441">
        <ele>619.75</ele>
      </trkpt>
      <trkpt lat="47.529285" lon="12.143811">
        <ele>615.25</ele>
      </trkpt>
      <trkpt lat="47.529482" lon="12.143693">
        <ele>615</ele>
      </trkpt>
      <trkpt lat="47.529536" lon="12.14364">
        <ele>614.25</ele>
      </trkpt>
      <trkpt lat="47.529583" lon="12.143575">
        <ele>613.75</ele>
      </trkpt>
      <trkpt lat="47.529599" lon="12.143527">
        <ele>613.25</ele>
      </trkpt>
      <trkpt lat="47.529662" lon="12.143249">
        <ele>613.5</ele>
      </trkpt>
      <trkpt lat="47.529797" lon="12.142887">
        <ele>611</ele>
      </trkpt>
      <trkpt lat="47.529881" lon="12.142759">
        <ele>609.75</ele>
      </trkpt>
      <trkpt lat="47.530031" lon="12.142634">
        <ele>608.5</ele>
      </trkpt>
      <trkpt lat="47.530068" lon="12.14261">
        <ele>608</ele>
      </trkpt>
      <trkpt lat="47.53041" lon="12.142373">
        <ele>603.75</ele>
      </trkpt>
      <trkpt lat="47.530671" lon="12.142211">
        <ele>601.75</ele>
      </trkpt>
      <trkpt lat="47.53087" lon="12.142108">
        <ele>601.25</ele>
      </trkpt>
      <trkpt lat="47.531382" lon="12.141962">
        <ele>598</ele>
      </trkpt>
      <trkpt lat="47.531655" lon="12.141872">
        <ele>596.75</ele>
      </trkpt>
      <trkpt lat="47.531783" lon="12.141824">
        <ele>596</ele>
      </trkpt>
      <trkpt lat="47.531945" lon="12.141757">
        <ele>595.25</ele>
      </trkpt>
      <trkpt lat="47.532119" lon="12.141723">
        <ele>594</ele>
      </trkpt>
      <trkpt lat="47.532366" lon="12.141699">
        <ele>592</ele>
      </trkpt>
      <trkpt lat="47.532467" lon="12.141667">
        <ele>591</ele>
      </trkpt>
      <trkpt lat="47.53259" lon="12.141598">
        <ele>590.5</ele>
      </trkpt>
      <trkpt lat="47.533714" lon="12.140878">
        <ele>586.5</ele>
      </trkpt>
      <trkpt lat="47.533788" lon="12.1408">
        <ele>586.25</ele>
      </trkpt>
      <trkpt lat="47.53387" lon="12.140683">
        <ele>586.5</ele>
      </trkpt>
      <trkpt lat="47.533945" lon="12.140725">
        <ele>586.25</ele>
      </trkpt>
      <trkpt lat="47.534076" lon="12.140779">
        <ele>586</ele>
      </trkpt>
      <trkpt lat="47.534315" lon="12.140832">
        <ele>585.25</ele>
      </trkpt>
      <trkpt lat="47.534684" lon="12.140888">
        <ele>584</ele>
      </trkpt>
      <trkpt lat="47.534795" lon="12.140895">
        <ele>583.75</ele>
      </trkpt>
      <trkpt lat="47.534935" lon="12.140888">
        <ele>583.75</ele>
      </trkpt>
      <trkpt lat="47.535215" lon="12.140873">
        <ele>583</ele>
      </trkpt>
      <trkpt lat="47.535267" lon="12.140884">
        <ele>582.75</ele>
      </trkpt>
      <trkpt lat="47.535357" lon="12.140924">
        <ele>582.5</ele>
      </trkpt>
      <trkpt lat="47.53545" lon="12.140997">
        <ele>582.25</ele>
      </trkpt>
      <trkpt lat="47.535916" lon="12.141413">
        <ele>580.5</ele>
      </trkpt>
      <trkpt lat="47.535957" lon="12.14145">
        <ele>580.5</ele>
      </trkpt>
      <trkpt lat="47.536082" lon="12.141557">
        <ele>580.5</ele>
      </trkpt>
      <trkpt lat="47.536259" lon="12.141688">
        <ele>580.25</ele>
      </trkpt>
      <trkpt lat="47.536471" lon="12.141817">
        <ele>579.75</ele>
      </trkpt>
      <trkpt lat="47.536604" lon="12.141881">
        <ele>579.75</ele>
      </trkpt>
      <trkpt lat="47.536759" lon="12.141939">
        <ele>579.5</ele>
      </trkpt>
      <trkpt lat="47.536932" lon="12.141994">
        <ele>579</ele>
      </trkpt>
      <trkpt lat="47.537077" lon="12.142027">
        <ele>579</ele>
      </trkpt>
      <trkpt lat="47.537303" lon="12.142043">
        <ele>578.75</ele>
      </trkpt>
      <trkpt lat="47.537611" lon="12.142029">
        <ele>579</ele>
      </trkpt>
      <trkpt lat="47.537959" lon="12.141992">
        <ele>578.25</ele>
      </trkpt>
      <trkpt lat="47.538029" lon="12.141989">
        <ele>578</ele>
      </trkpt>
      <trkpt lat="47.538126" lon="12.141998">
        <ele>578</ele>
      </trkpt>
      <trkpt lat="47.5383" lon="12.142054">
        <ele>578</ele>
      </trkpt>
      <trkpt lat="47.538686" lon="12.142239">
        <ele>577.75</ele>
      </trkpt>
      <trkpt lat="47.538703" lon="12.142381">
        <ele>577.25</ele>
      </trkpt>
      <trkpt lat="47.538724" lon="12.14244">
        <ele>577</ele>
      </trkpt>
      <trkpt lat="47.538828" lon="12.142576">
        <ele>576.75</ele>
      </trkpt>
      <trkpt lat="47.539232" lon="12.142886">
        <ele>576.75</ele>
      </trkpt>
      <trkpt lat="47.539556" lon="12.143123">
        <ele>576.25</ele>
      </trkpt>
      <trkpt lat="47.539873" lon="12.143338">
        <ele>575.75</ele>
      </trkpt>
      <trkpt lat="47.540179" lon="12.143502">
        <ele>575.25</ele>
      </trkpt>
      <trkpt lat="47.540277" lon="12.143545">
        <ele>575</ele>
      </trkpt>
      <trkpt lat="47.540691" lon="12.143633">
        <ele>574</ele>
      </trkpt>
      <trkpt lat="47.540904" lon="12.143673">
        <ele>573.5</ele>
      </trkpt>
      <trkpt lat="47.541545" lon="12.143743">
        <ele>572.5</ele>
      </trkpt>
      <trkpt lat="47.54177" lon="12.143762">
        <ele>572.25</ele>
      </trkpt>
      <trkpt lat="47.541835" lon="12.143763">
        <ele>572.5</ele>
      </trkpt>
      <trkpt lat="47.541952" lon="12.143474">
        <ele>571</ele>
      </trkpt>
      <trkpt lat="47.542135" lon="12.143025">
        <ele>571</ele>
      </trkpt>
      <trkpt lat="47.542182" lon="12.142901">
        <ele>571.5</ele>
      </trkpt>
      <trkpt lat="47.542442" lon="12.142293">
        <ele>571.75</ele>
      </trkpt>
      <trkpt lat="47.542512" lon="12.142131">
        <ele>572.25</ele>
      </trkpt>
      <trkpt lat="47.542926" lon="12.141385">
        <ele>571.75</ele>
      </trkpt>
      <trkpt lat="47.542949" lon="12.141339">
        <ele>571.75</ele>
      </trkpt>
      <trkpt lat="47.54302" lon="12.141213">
        <ele>571.75</ele>
      </trkpt>
      <trkpt lat="47.543124" lon="12.141138">
        <ele>571.75</ele>
      </trkpt>
      <trkpt lat="47.543175" lon="12.141053">
        <ele>572.75</ele>
      </trkpt>
      <trkpt lat="47.54317" lon="12.140991">
        <ele>573.5</ele>
      </trkpt>
      <trkpt lat="47.543247" lon="12.140983">
        <ele>573.75</ele>
      </trkpt>
      <trkpt lat="47.543669" lon="12.140901">
        <ele>577</ele>
      </trkpt>
      <trkpt lat="47.543719" lon="12.140896">
        <ele>577.25</ele>
      </trkpt>
      <trkpt lat="47.543963" lon="12.140871">
        <ele>578.25</ele>
      </trkpt>
      <trkpt lat="47.54413" lon="12.140832">
        <ele>578</ele>
      </trkpt>
      <trkpt lat="47.544221" lon="12.140826">
        <ele>577.25</ele>
      </trkpt>
      <trkpt lat="47.544358" lon="12.140843">
        <ele>575.75</ele>
      </trkpt>
      <trkpt lat="47.544429" lon="12.140979">
        <ele>574</ele>
      </trkpt>
      <trkpt lat="47.544416" lon="12.141076">
        <ele>573.5</ele>
      </trkpt>
      <trkpt lat="47.544358" lon="12.141175">
        <ele>573.25</ele>
      </trkpt>
      <trkpt lat="47.544289" lon="12.141223">
        <ele>573</ele>
      </trkpt>
      <trkpt lat="47.544212" lon="12.141258">
        <ele>573</ele>
      </trkpt>
      <trkpt lat="47.544289" lon="12.141223">
        <ele>573</ele>
      </trkpt>
      <trkpt lat="47.544358" lon="12.141175">
        <ele>573.25</ele>
      </trkpt>
      <trkpt lat="47.544416" lon="12.141076">
        <ele>573.5</ele>
      </trkpt>
      <trkpt lat="47.544429" lon="12.140979">
        <ele>574</ele>
      </trkpt>
      <trkpt lat="47.544358" lon="12.140843">
        <ele>575.75</ele>
      </trkpt>
      <trkpt lat="47.544562" lon="12.140852">
        <ele>573.5</ele>
      </trkpt>
      <trkpt lat="47.544707" lon="12.140811">
        <ele>572</ele>
      </trkpt>
      <trkpt lat="47.544745" lon="12.140793">
        <ele>572</ele>
      </trkpt>
      <trkpt lat="47.544906" lon="12.140688">
        <ele>572</ele>
      </trkpt>
      <trkpt lat="47.544992" lon="12.140607">
        <ele>572</ele>
      </trkpt>
      <trkpt lat="47.545078" lon="12.140508">
        <ele>572</ele>
      </trkpt>
      <trkpt lat="47.545131" lon="12.140432">
        <ele>572</ele>
      </trkpt>
      <trkpt lat="47.54516" lon="12.14039">
        <ele>572.25</ele>
      </trkpt>
      <trkpt lat="47.545334" lon="12.1402">
        <ele>572</ele>
      </trkpt>
      <trkpt lat="47.545473" lon="12.140067">
        <ele>572</ele>
      </trkpt>
      <trkpt lat="47.545599" lon="12.139961">
        <ele>572</ele>
      </trkpt>
      <trkpt lat="47.545846" lon="12.139778">
        <ele>572</ele>
      </trkpt>
      <trkpt lat="47.546094" lon="12.139587">
        <ele>572.25</ele>
      </trkpt>
      <trkpt lat="47.546535" lon="12.139244">
        <ele>572.5</ele>
      </trkpt>
      <trkpt lat="47.546643" lon="12.139159">
        <ele>573</ele>
      </trkpt>
      <trkpt lat="47.546826" lon="12.13902">
        <ele>573</ele>
      </trkpt>
      <trkpt lat="47.546955" lon="12.138932">
        <ele>573</ele>
      </trkpt>
      <trkpt lat="47.547042" lon="12.138889">
        <ele>573</ele>
      </trkpt>
      <trkpt lat="47.547122" lon="12.138862">
        <ele>573</ele>
      </trkpt>
      <trkpt lat="47.547213" lon="12.138849">
        <ele>573.25</ele>
      </trkpt>
      <trkpt lat="47.547294" lon="12.138852">
        <ele>573.25</ele>
      </trkpt>
      <trkpt lat="47.547323" lon="12.13877">
        <ele>573.75</ele>
      </trkpt>
      <trkpt lat="47.54734" lon="12.138725">
        <ele>574</ele>
      </trkpt>
      <trkpt lat="47.547375" lon="12.138505">
        <ele>575.5</ele>
      </trkpt>
      <trkpt lat="47.5474" lon="12.138233">
        <ele>578</ele>
      </trkpt>
      <trkpt lat="47.547408" lon="12.13811">
        <ele>579</ele>
      </trkpt>
      <trkpt lat="47.547388" lon="12.13789">
        <ele>580.75</ele>
      </trkpt>
      <trkpt lat="47.547367" lon="12.137774">
        <ele>581.75</ele>
      </trkpt>
      <trkpt lat="47.547327" lon="12.137625">
        <ele>583.5</ele>
      </trkpt>
      <trkpt lat="47.547247" lon="12.137446">
        <ele>585.25</ele>
      </trkpt>
      <trkpt lat="47.547055" lon="12.13715">
        <ele>590.5</ele>
      </trkpt>
      <trkpt lat="47.546997" lon="12.137031">
        <ele>591.75</ele>
      </trkpt>
      <trkpt lat="47.546969" lon="12.136949">
        <ele>592</ele>
      </trkpt>
      <trkpt lat="47.546954" lon="12.136862">
        <ele>592.75</ele>
      </trkpt>
      <trkpt lat="47.546943" lon="12.136709">
        <ele>594.5</ele>
      </trkpt>
      <trkpt lat="47.546927" lon="12.13625">
        <ele>598.5</ele>
      </trkpt>
      <trkpt lat="47.546906" lon="12.136054">
        <ele>600.5</ele>
      </trkpt>
      <trkpt lat="47.546794" lon="12.135486">
        <ele>604.25</ele>
      </trkpt>
      <trkpt lat="47.546698" lon="12.135061">
        <ele>605</ele>
      </trkpt>
      <trkpt lat="47.546601" lon="12.134606">
        <ele>606</ele>
      </trkpt>
      <trkpt lat="47.546539" lon="12.134223">
        <ele>605</ele>
      </trkpt>
      <trkpt lat="47.546513" lon="12.134064">
        <ele>604</ele>
      </trkpt>
      <trkpt lat="47.546428" lon="12.133737">
        <ele>601.75</ele>
      </trkpt>
      <trkpt lat="47.546321" lon="12.133516">
        <ele>600.75</ele>
      </trkpt>
      <trkpt lat="47.546187" lon="12.133347">
        <ele>600.5</ele>
      </trkpt>
      <trkpt lat="47.546127" lon="12.133221">
        <ele>600.25</ele>
      </trkpt>
      <trkpt lat="47.546113" lon="12.133128">
        <ele>600</ele>
      </trkpt>
      <trkpt lat="47.546129" lon="12.133081">
        <ele>599.75</ele>
      </trkpt>
      <trkpt lat="47.546183" lon="12.132999">
        <ele>599.25</ele>
      </trkpt>
      <trkpt lat="47.546342" lon="12.132847">
        <ele>598</ele>
      </trkpt>
      <trkpt lat="47.546413" lon="12.132743">
        <ele>597.75</ele>
      </trkpt>
      <trkpt lat="47.547106" lon="12.131644">
        <ele>588</ele>
      </trkpt>
      <trkpt lat="47.547184" lon="12.131439">
        <ele>586.25</ele>
      </trkpt>
      <trkpt lat="47.54726" lon="12.131304">
        <ele>585.5</ele>
      </trkpt>
      <trkpt lat="47.547395" lon="12.13114">
        <ele>583.75</ele>
      </trkpt>
      <trkpt lat="47.547501" lon="12.131047">
        <ele>582.75</ele>
      </trkpt>
      <trkpt lat="47.547581" lon="12.130998">
        <ele>582</ele>
      </trkpt>
      <trkpt lat="47.547847" lon="12.130873">
        <ele>578.5</ele>
      </trkpt>
      <trkpt lat="47.547974" lon="12.130788">
        <ele>576.5</ele>
      </trkpt>
      <trkpt lat="47.548059" lon="12.130691">
        <ele>574.25</ele>
      </trkpt>
      <trkpt lat="47.548102" lon="12.130587">
        <ele>573.25</ele>
      </trkpt>
      <trkpt lat="47.548136" lon="12.130456">
        <ele>572.25</ele>
      </trkpt>
      <trkpt lat="47.548147" lon="12.130317">
        <ele>571.5</ele>
      </trkpt>
      <trkpt lat="47.548138" lon="12.130039">
        <ele>570.5</ele>
      </trkpt>
      <trkpt lat="47.548101" lon="12.12974">
        <ele>567.75</ele>
      </trkpt>
      <trkpt lat="47.548078" lon="12.129629">
        <ele>566.75</ele>
      </trkpt>
      <trkpt lat="47.547961" lon="12.129224">
        <ele>565.25</ele>
      </trkpt>
      <trkpt lat="47.547806" lon="12.128859">
        <ele>562.5</ele>
      </trkpt>
      <trkpt lat="47.547631" lon="12.128558">
        <ele>560</ele>
      </trkpt>
      <trkpt lat="47.547509" lon="12.128396">
        <ele>556.25</ele>
      </trkpt>
      <trkpt lat="47.547281" lon="12.128125">
        <ele>552</ele>
      </trkpt>
      <trkpt lat="47.547148" lon="12.12792">
        <ele>549.25</ele>
      </trkpt>
      <trkpt lat="47.547061" lon="12.127716">
        <ele>547.25</ele>
      </trkpt>
      <trkpt lat="47.546911" lon="12.127106">
        <ele>538.5</ele>
      </trkpt>
      <trkpt lat="47.54688" lon="12.126853">
        <ele>535.75</ele>
      </trkpt>
      <trkpt lat="47.546801" lon="12.126466">
        <ele>530.75</ele>
      </trkpt>
      <trkpt lat="47.546767" lon="12.126358">
        <ele>529</ele>
      </trkpt>
      <trkpt lat="47.546716" lon="12.12623">
        <ele>526.5</ele>
      </trkpt>
      <trkpt lat="47.546605" lon="12.125993">
        <ele>522.75</ele>
      </trkpt>
      <trkpt lat="47.546574" lon="12.125878">
        <ele>521</ele>
      </trkpt>
      <trkpt lat="47.546575" lon="12.125832">
        <ele>520.25</ele>
      </trkpt>
      <trkpt lat="47.546585" lon="12.125791">
        <ele>519.75</ele>
      </trkpt>
      <trkpt lat="47.546619" lon="12.125711">
        <ele>518.75</ele>
      </trkpt>
      <trkpt lat="47.546665" lon="12.125661">
        <ele>518</ele>
      </trkpt>
      <trkpt lat="47.546762" lon="12.125591">
        <ele>517.75</ele>
      </trkpt>
      <trkpt lat="47.546831" lon="12.125509">
        <ele>517</ele>
      </trkpt>
      <trkpt lat="47.546882" lon="12.125398">
        <ele>516.25</ele>
      </trkpt>
      <trkpt lat="47.546903" lon="12.125305">
        <ele>515.5</ele>
      </trkpt>
      <trkpt lat="47.54694" lon="12.124927">
        <ele>514.5</ele>
      </trkpt>
      <trkpt lat="47.546958" lon="12.124802">
        <ele>514.25</ele>
      </trkpt>
      <trkpt lat="47.547026" lon="12.124496">
        <ele>512.25</ele>
      </trkpt>
      <trkpt lat="47.547094" lon="12.124156">
        <ele>510</ele>
      </trkpt>
      <trkpt lat="47.5471" lon="12.12406">
        <ele>509.25</ele>
      </trkpt>
      <trkpt lat="47.547098" lon="12.123941">
        <ele>508.5</ele>
      </trkpt>
      <trkpt lat="47.547081" lon="12.123867">
        <ele>507.75</ele>
      </trkpt>
      <trkpt lat="47.547056" lon="12.123811">
        <ele>507.75</ele>
      </trkpt>
      <trkpt lat="47.546996" lon="12.123737">
        <ele>507.25</ele>
      </trkpt>
      <trkpt lat="47.546947" lon="12.123668">
        <ele>507</ele>
      </trkpt>
      <trkpt lat="47.54691" lon="12.123556">
        <ele>505.75</ele>
      </trkpt>
      <trkpt lat="47.546886" lon="12.123446">
        <ele>504.75</ele>
      </trkpt>
      <trkpt lat="47.546863" lon="12.123218">
        <ele>502</ele>
      </trkpt>
      <trkpt lat="47.546861" lon="12.123099">
        <ele>500.5</ele>
      </trkpt>
      <trkpt lat="47.546857" lon="12.122513">
        <ele>494.75</ele>
      </trkpt>
      <trkpt lat="47.546862" lon="12.122426">
        <ele>494</ele>
      </trkpt>
      <trkpt lat="47.546876" lon="12.122323">
        <ele>493.25</ele>
      </trkpt>
      <trkpt lat="47.546907" lon="12.122235">
        <ele>492.75</ele>
      </trkpt>
      <trkpt lat="47.546947" lon="12.122167">
        <ele>492.5</ele>
      </trkpt>
      <trkpt lat="47.547029" lon="12.122105">
        <ele>490.75</ele>
      </trkpt>
      <trkpt lat="47.546949" lon="12.122097">
        <ele>492</ele>
      </trkpt>
      <trkpt lat="47.546906" lon="12.122083">
        <ele>491</ele>
      </trkpt>
      <trkpt lat="47.546949" lon="12.122097">
        <ele>492</ele>
      </trkpt>
      <trkpt lat="47.547029" lon="12.122105">
        <ele>490.75</ele>
      </trkpt>
      <trkpt lat="47.547126" lon="12.121999">
        <ele>489</ele>
      </trkpt>
      <trkpt lat="47.547155" lon="12.12195">
        <ele>488.5</ele>
      </trkpt>
      <trkpt lat="47.547176" lon="12.121898">
        <ele>488.25</ele>
      </trkpt>
      <trkpt lat="47.547247" lon="12.121668">
        <ele>487.75</ele>
      </trkpt>
      <trkpt lat="47.547295" lon="12.121461">
        <ele>487.75</ele>
      </trkpt>
      <trkpt lat="47.546555" lon="12.120959">
        <ele>487.5</ele>
      </trkpt>
      <trkpt lat="47.545416" lon="12.120139">
        <ele>487.75</ele>
      </trkpt>
      <trkpt lat="47.545271" lon="12.120008">
        <ele>487.75</ele>
      </trkpt>
      <trkpt lat="47.545198" lon="12.11982">
        <ele>487.25</ele>
      </trkpt>
      <trkpt lat="47.545136" lon="12.119633">
        <ele>487.25</ele>
      </trkpt>
      <trkpt lat="47.545065" lon="12.119515">
        <ele>488</ele>
      </trkpt>
      <trkpt lat="47.544529" lon="12.119196">
        <ele>487.75</ele>
      </trkpt>
      <trkpt lat="47.543728" lon="12.118756">
        <ele>487.75</ele>
      </trkpt>
      <trkpt lat="47.542238" lon="12.117556">
        <ele>488.5</ele>
      </trkpt>
      <trkpt lat="47.541737" lon="12.117137">
        <ele>487.75</ele>
      </trkpt>
      <trkpt lat="47.54139" lon="12.116867">
        <ele>487.75</ele>
      </trkpt>
      <trkpt lat="47.540978" lon="12.116505">
        <ele>488.25</ele>
      </trkpt>
      <trkpt lat="47.540588" lon="12.116196">
        <ele>488</ele>
      </trkpt>
      <trkpt lat="47.540308" lon="12.115952">
        <ele>488.25</ele>
      </trkpt>
      <trkpt lat="47.540002" lon="12.115667">
        <ele>487.75</ele>
      </trkpt>
      <trkpt lat="47.539841" lon="12.115476">
        <ele>488.25</ele>
      </trkpt>
      <trkpt lat="47.53955" lon="12.11513">
        <ele>488.5</ele>
      </trkpt>
      <trkpt lat="47.539485" lon="12.115026">
        <ele>488.75</ele>
      </trkpt>
      <trkpt lat="47.53945" lon="12.11491">
        <ele>488.75</ele>
      </trkpt>
      <trkpt lat="47.539435" lon="12.114825">
        <ele>489</ele>
      </trkpt>
      <trkpt lat="47.53942" lon="12.114677">
        <ele>488.75</ele>
      </trkpt>
      <trkpt lat="47.539481" lon="12.114425">
        <ele>488.75</ele>
      </trkpt>
      <trkpt lat="47.539484" lon="12.11427">
        <ele>488.75</ele>
      </trkpt>
      <trkpt lat="47.539457" lon="12.114156">
        <ele>488.75</ele>
      </trkpt>
      <trkpt lat="47.539417" lon="12.114078">
        <ele>488.5</ele>
      </trkpt>
      <trkpt lat="47.5385" lon="12.112699">
        <ele>488</ele>
      </trkpt>
      <trkpt lat="47.537938" lon="12.111852">
        <ele>488</ele>
      </trkpt>
      <trkpt lat="47.536912" lon="12.110256">
        <ele>488.5</ele>
      </trkpt>
      <trkpt lat="47.536713" lon="12.109978">
        <ele>488.5</ele>
      </trkpt>
      <trkpt lat="47.536522" lon="12.109682">
        <ele>488</ele>
      </trkpt>
      <trkpt lat="47.53624" lon="12.109273">
        <ele>488.5</ele>
      </trkpt>
      <trkpt lat="47.536202" lon="12.109166">
        <ele>488.5</ele>
      </trkpt>
      <trkpt lat="47.53616" lon="12.109078">
        <ele>488.5</ele>
      </trkpt>
      <trkpt lat="47.535388" lon="12.107873">
        <ele>488.5</ele>
      </trkpt>
      <trkpt lat="47.535244" lon="12.107525">
        <ele>489</ele>
      </trkpt>
      <trkpt lat="47.535153" lon="12.107234">
        <ele>487.5</ele>
      </trkpt>
      <trkpt lat="47.534177" lon="12.104958">
        <ele>489.5</ele>
      </trkpt>
      <trkpt lat="47.533845" lon="12.104908">
        <ele>488.75</ele>
      </trkpt>
      <trkpt lat="47.533315" lon="12.104862">
        <ele>488.75</ele>
      </trkpt>
      <trkpt lat="47.532639" lon="12.104827">
        <ele>488.75</ele>
      </trkpt>
      <trkpt lat="47.531932" lon="12.104821">
        <ele>489</ele>
      </trkpt>
      <trkpt lat="47.530961" lon="12.104877">
        <ele>489</ele>
      </trkpt>
      <trkpt lat="47.53047" lon="12.104935">
        <ele>489.25</ele>
      </trkpt>
      <trkpt lat="47.530041" lon="12.105035">
        <ele>489.75</ele>
      </trkpt>
      <trkpt lat="47.529372" lon="12.105274">
        <ele>490.75</ele>
      </trkpt>
      <trkpt lat="47.528892" lon="12.105512">
        <ele>490.75</ele>
      </trkpt>
      <trkpt lat="47.528537" lon="12.105758">
        <ele>491</ele>
      </trkpt>
      <trkpt lat="47.52824" lon="12.106013">
        <ele>491.5</ele>
      </trkpt>
      <trkpt lat="47.527923" lon="12.106334">
        <ele>492.75</ele>
      </trkpt>
      <trkpt lat="47.527598" lon="12.106756">
        <ele>494.25</ele>
      </trkpt>
      <trkpt lat="47.527523" lon="12.106916">
        <ele>494.75</ele>
      </trkpt>
      <trkpt lat="47.527373" lon="12.107065">
        <ele>496</ele>
      </trkpt>
      <trkpt lat="47.527377" lon="12.10694">
        <ele>495.75</ele>
      </trkpt>
      <trkpt lat="47.527275" lon="12.106914">
        <ele>496.5</ele>
      </trkpt>
      <trkpt lat="47.527173" lon="12.106831">
        <ele>498.75</ele>
      </trkpt>
      <trkpt lat="47.526956" lon="12.106369">
        <ele>502</ele>
      </trkpt>
      <trkpt lat="47.526887" lon="12.106265">
        <ele>501.5</ele>
      </trkpt>
      <trkpt lat="47.526419" lon="12.105793">
        <ele>507.75</ele>
      </trkpt>
      <trkpt lat="47.526367" lon="12.105769">
        <ele>508.5</ele>
      </trkpt>
      <trkpt lat="47.526278" lon="12.105768">
        <ele>509.5</ele>
      </trkpt>
      <trkpt lat="47.526501" lon="12.106239">
        <ele>509.5</ele>
      </trkpt>
      <trkpt lat="47.526676" lon="12.106635">
        <ele>508.75</ele>
      </trkpt>
      <trkpt lat="47.526759" lon="12.106838">
        <ele>509</ele>
      </trkpt>
      <trkpt lat="47.526945" lon="12.107296">
        <ele>506.75</ele>
      </trkpt>
      <trkpt lat="47.526906" lon="12.107361">
        <ele>507.5</ele>
      </trkpt>
      <trkpt lat="47.526886" lon="12.107419">
        <ele>507.75</ele>
      </trkpt>
      <trkpt lat="47.526866" lon="12.107608">
        <ele>507.75</ele>
      </trkpt>
      <trkpt lat="47.526859" lon="12.107809">
        <ele>507.5</ele>
      </trkpt>
      <trkpt lat="47.526717" lon="12.107814">
        <ele>510.25</ele>
      </trkpt>
      <trkpt lat="47.526672" lon="12.107802">
        <ele>511</ele>
      </trkpt>
      <trkpt lat="47.526627" lon="12.107757">
        <ele>512.25</ele>
      </trkpt>
      <trkpt lat="47.52658" lon="12.107663">
        <ele>513.5</ele>
      </trkpt>
      <trkpt lat="47.526468" lon="12.107321">
        <ele>513.5</ele>
      </trkpt>
      <trkpt lat="47.526368" lon="12.107029">
        <ele>512.75</ele>
      </trkpt>
      <trkpt lat="47.526183" lon="12.106676">
        <ele>513.5</ele>
      </trkpt>
      <trkpt lat="47.52618" lon="12.106681">
        <ele>513.5</ele>
      </trkpt>
      <trkpt lat="47.526052" lon="12.106468">
        <ele>514.75</ele>
      </trkpt>
      <trkpt lat="47.525857" lon="12.106224">
        <ele>515.5</ele>
      </trkpt>
      <trkpt lat="47.525754" lon="12.106138">
        <ele>516.25</ele>
      </trkpt>
      <trkpt lat="47.525633" lon="12.105998">
        <ele>518.25</ele>
      </trkpt>
      <trkpt lat="47.525578" lon="12.105987">
        <ele>519.5</ele>
      </trkpt>
    </trkseg>
  </trk>
</gpx>
