<?xml version="1.0" encoding="UTF-8"?>
<!-- track-length = 19461 filtered ascend = 1047 plain-ascend = 3 cost=59002 energy=0.3kwh time=3h 24s -->
<gpx 
 xmlns="http://www.topografix.com/GPX/1/1" 
 xmlns:xsi="http://www.w3.org/2001/XMLSchema-instance" 
 xsi:schemaLocation="http://www.topografix.com/GPX/1/1 http://www.topografix.com/GPX/1/1/gpx.xsd" 
 version="1.1" 
 creator="bikerouter.de 2025.49">
 <wpt lat="47.431642086728004" lon="12.216732546127893"><name>from</name><type>from</type></wpt>
 <wpt lat="47.41985422661537" lon="12.237651085879161"><name>via1</name><type>via</type></wpt>
 <wpt lat="47.41929564191246" lon="12.244718731721736"><name>via2</name><type>via</type></wpt>
 <wpt lat="47.443934036386445" lon="12.241693193029716"><name>via3</name><type>via</type></wpt>
 <wpt lat="47.43160364230595" lon="12.216729895850616"><name>to</name><type>to</type></wpt>
 <trk>
  <name>Westendorf_Alpenrosenhütte_Westendorf</name>
  <link href="https://bikerouter.de/?turnInstructionMode=1&amp;turnInstructionCatchingRange=0&amp;turnInstructionRoundabouts=on&amp;processUnusedTags=on#map=16/47.4161/12.2361/osm-mapnik-german_style&amp;lonlats=12.216733,47.431642;12.237651,47.419854;12.244719,47.419296;12.241693,47.443934;12.21673,47.431604&amp;profile=m11n-gravel">
   <text>bikerouter.de</text>
  </link>
  <trkseg>
   <trkpt lat="47.431311" lon="12.216754"><ele>790.5</ele></trkpt>
   <trkpt lat="47.431202" lon="12.216588"><ele>790.75</ele></trkpt>
   <trkpt lat="47.431124" lon="12.2167"><ele>792</ele></trkpt>
   <trkpt lat="47.431005" lon="12.216868"><ele>793.25</ele></trkpt>
   <trkpt lat="47.430847" lon="12.217088"><ele>795.75</ele></trkpt>
   <trkpt lat="47.430711" lon="12.217289"><ele>798</ele></trkpt>
   <trkpt lat="47.430605" lon="12.217442"><ele>799.75</ele></trkpt>
   <trkpt lat="47.430135" lon="12.218076"><ele>807</ele></trkpt>
   <trkpt lat="47.429409" lon="12.21906"><ele>821.25</ele></trkpt>
   <trkpt lat="47.428981" lon="12.219749"><ele>831.5</ele></trkpt>
   <trkpt lat="47.428734" lon="12.220283"><ele>839</ele></trkpt>
   <trkpt lat="47.428636" lon="12.220427"><ele>840.75</ele></trkpt>
   <trkpt lat="47.428576" lon="12.22048"><ele>841.75</ele></trkpt>
   <trkpt lat="47.428325" lon="12.220547"><ele>845</ele></trkpt>
   <trkpt lat="47.42828" lon="12.22055"><ele>846</ele></trkpt>
   <trkpt lat="47.427892" lon="12.220449"><ele>850.5</ele></trkpt>
   <trkpt lat="47.427818" lon="12.220448"><ele>851.25</ele></trkpt>
   <trkpt lat="47.427759" lon="12.220456"><ele>852.25</ele></trkpt>
   <trkpt lat="47.427519" lon="12.220524"><ele>858</ele></trkpt>
   <trkpt lat="47.427472" lon="12.220523"><ele>859.5</ele></trkpt>
   <trkpt lat="47.427442" lon="12.220508"><ele>860.25</ele></trkpt>
   <trkpt lat="47.427382" lon="12.22044"><ele>861.75</ele></trkpt>
   <trkpt lat="47.427328" lon="12.220322"><ele>862.75</ele></trkpt>
   <trkpt lat="47.427304" lon="12.22033"><ele>863.75</ele></trkpt>
   <trkpt lat="47.427287" lon="12.220363"><ele>864.75</ele></trkpt>
   <trkpt lat="47.427282" lon="12.22051"><ele>866.25</ele></trkpt>
   <trkpt lat="47.427291" lon="12.220665"><ele>868.25</ele></trkpt>
   <trkpt lat="47.427308" lon="12.220786"><ele>869.5</ele></trkpt>
   <trkpt lat="47.427372" lon="12.221047"><ele>871.25</ele></trkpt>
   <trkpt lat="47.427449" lon="12.221165"><ele>870.25</ele></trkpt>
   <trkpt lat="47.427452" lon="12.221268"><ele>870.5</ele></trkpt>
   <trkpt lat="47.427435" lon="12.221381"><ele>871.5</ele></trkpt>
   <trkpt lat="47.427417" lon="12.221454"><ele>872.5</ele></trkpt>
   <trkpt lat="47.427393" lon="12.221507"><ele>873.5</ele></trkpt>
   <trkpt lat="47.427323" lon="12.221555"><ele>876.5</ele></trkpt>
   <trkpt lat="47.427261" lon="12.221636"><ele>879.25</ele></trkpt>
   <trkpt lat="47.427188" lon="12.221891"><ele>887.25</ele></trkpt>
   <trkpt lat="47.427211" lon="12.222226"><ele>893.5</ele></trkpt>
   <trkpt lat="47.42732" lon="12.222635"><ele>899</ele></trkpt>
   <trkpt lat="47.427216" lon="12.222738"><ele>907</ele></trkpt>
   <trkpt lat="47.427175" lon="12.222943"><ele>910.25</ele></trkpt>
   <trkpt lat="47.427113" lon="12.223025"><ele>913.5</ele></trkpt>
   <trkpt lat="47.426985" lon="12.223086"><ele>919.75</ele></trkpt>
   <trkpt lat="47.426853" lon="12.223179"><ele>925.25</ele></trkpt>
   <trkpt lat="47.426859" lon="12.223266"><ele>924.75</ele></trkpt>
   <trkpt lat="47.42681" lon="12.223293"><ele>927.25</ele></trkpt>
   <trkpt lat="47.426612" lon="12.223478"><ele>935</ele></trkpt>
   <trkpt lat="47.426589" lon="12.223753"><ele>936.25</ele></trkpt>
   <trkpt lat="47.426472" lon="12.223874"><ele>943.75</ele></trkpt>
   <trkpt lat="47.426419" lon="12.224028"><ele>948.25</ele></trkpt>
   <trkpt lat="47.42644" lon="12.224109"><ele>949</ele></trkpt>
   <trkpt lat="47.426476" lon="12.22411"><ele>948.75</ele></trkpt>
   <trkpt lat="47.42654" lon="12.224067"><ele>946.75</ele></trkpt>
   <trkpt lat="47.426614" lon="12.224071"><ele>945.75</ele></trkpt>
   <trkpt lat="47.426656" lon="12.224034"><ele>943</ele></trkpt>
   <trkpt lat="47.426827" lon="12.224063"><ele>943.25</ele></trkpt>
   <trkpt lat="47.426858" lon="12.22408"><ele>944</ele></trkpt>
   <trkpt lat="47.426907" lon="12.224273"><ele>949.75</ele></trkpt>
   <trkpt lat="47.426921" lon="12.224543"><ele>955</ele></trkpt>
   <trkpt lat="47.426959" lon="12.22465"><ele>956.5</ele></trkpt>
   <trkpt lat="47.427019" lon="12.224702"><ele>958.5</ele></trkpt>
   <trkpt lat="47.427139" lon="12.2247"><ele>960</ele></trkpt>
   <trkpt lat="47.427307" lon="12.224738"><ele>963.5</ele></trkpt>
   <trkpt lat="47.427261" lon="12.224826"><ele>965.75</ele></trkpt>
   <trkpt lat="47.427427" lon="12.224861"><ele>969.25</ele></trkpt>
   <trkpt lat="47.42748" lon="12.224901"><ele>971.5</ele></trkpt>
   <trkpt lat="47.427547" lon="12.224891"><ele>971.5</ele></trkpt>
   <trkpt lat="47.42767" lon="12.224934"><ele>973.25</ele></trkpt>
   <trkpt lat="47.427749" lon="12.225"><ele>974.75</ele></trkpt>
   <trkpt lat="47.4279" lon="12.225303"><ele>977.25</ele></trkpt>
   <trkpt lat="47.427974" lon="12.225421"><ele>979</ele></trkpt>
   <trkpt lat="47.428074" lon="12.225512"><ele>979.5</ele></trkpt>
   <trkpt lat="47.428185" lon="12.225592"><ele>980.75</ele></trkpt>
   <trkpt lat="47.428217" lon="12.225629"><ele>981.5</ele></trkpt>
   <trkpt lat="47.428217" lon="12.225685"><ele>983</ele></trkpt>
   <trkpt lat="47.428182" lon="12.225736"><ele>984.5</ele></trkpt>
   <trkpt lat="47.4281" lon="12.225755"><ele>985.5</ele></trkpt>
   <trkpt lat="47.427685" lon="12.225677"><ele>990.5</ele></trkpt>
   <trkpt lat="47.427612" lon="12.225656"><ele>991.5</ele></trkpt>
   <trkpt lat="47.427571" lon="12.225626"><ele>992</ele></trkpt>
   <trkpt lat="47.427496" lon="12.225549"><ele>992.75</ele></trkpt>
   <trkpt lat="47.427437" lon="12.225525"><ele>991.25</ele></trkpt>
   <trkpt lat="47.427396" lon="12.225545"><ele>991</ele></trkpt>
   <trkpt lat="47.427366" lon="12.225572"><ele>991.25</ele></trkpt>
   <trkpt lat="47.427341" lon="12.225613"><ele>991.75</ele></trkpt>
   <trkpt lat="47.427329" lon="12.225674"><ele>992.75</ele></trkpt>
   <trkpt lat="47.427331" lon="12.225713"><ele>993.75</ele></trkpt>
   <trkpt lat="47.427342" lon="12.225747"><ele>994.25</ele></trkpt>
   <trkpt lat="47.427388" lon="12.225861"><ele>996.25</ele></trkpt>
   <trkpt lat="47.427483" lon="12.225994"><ele>998</ele></trkpt>
   <trkpt lat="47.427586" lon="12.226103"><ele>998.75</ele></trkpt>
   <trkpt lat="47.427603" lon="12.226141"><ele>999.5</ele></trkpt>
   <trkpt lat="47.427596" lon="12.226163"><ele>1000.25</ele></trkpt>
   <trkpt lat="47.427567" lon="12.226164"><ele>1000.5</ele></trkpt>
   <trkpt lat="47.427444" lon="12.226104"><ele>1000.75</ele></trkpt>
   <trkpt lat="47.427375" lon="12.226044"><ele>1000.5</ele></trkpt>
   <trkpt lat="47.427268" lon="12.226007"><ele>1001.25</ele></trkpt>
   <trkpt lat="47.427194" lon="12.226035"><ele>1002.5</ele></trkpt>
   <trkpt lat="47.427121" lon="12.226106"><ele>1004.25</ele></trkpt>
   <trkpt lat="47.427015" lon="12.226184"><ele>1007</ele></trkpt>
   <trkpt lat="47.426922" lon="12.226209"><ele>1008.75</ele></trkpt>
   <trkpt lat="47.426819" lon="12.226184"><ele>1010.75</ele></trkpt>
   <trkpt lat="47.426722" lon="12.226105"><ele>1010</ele></trkpt>
   <trkpt lat="47.426626" lon="12.226041"><ele>1011</ele></trkpt>
   <trkpt lat="47.426521" lon="12.226027"><ele>1013.75</ele></trkpt>
   <trkpt lat="47.426403" lon="12.22604"><ele>1017.75</ele></trkpt>
   <trkpt lat="47.426285" lon="12.225998"><ele>1014.25</ele></trkpt>
   <trkpt lat="47.426035" lon="12.226289"><ele>1025.75</ele></trkpt>
   <trkpt lat="47.425968" lon="12.226179"><ele>1022.25</ele></trkpt>
   <trkpt lat="47.425913" lon="12.226077"><ele>1019.75</ele></trkpt>
   <trkpt lat="47.425798" lon="12.225824"><ele>1020.5</ele></trkpt>
   <trkpt lat="47.425771" lon="12.225622"><ele>1018.5</ele></trkpt>
   <trkpt lat="47.425671" lon="12.225504"><ele>1022.25</ele></trkpt>
   <trkpt lat="47.425677" lon="12.225336"><ele>1020.5</ele></trkpt>
   <trkpt lat="47.425596" lon="12.225252"><ele>1024.75</ele></trkpt>
   <trkpt lat="47.425557" lon="12.22515"><ele>1025.5</ele></trkpt>
   <trkpt lat="47.425296" lon="12.224848"><ele>1031</ele></trkpt>
   <trkpt lat="47.424927" lon="12.224752"><ele>1046</ele></trkpt>
   <trkpt lat="47.424842" lon="12.224524"><ele>1045.5</ele></trkpt>
   <trkpt lat="47.42463" lon="12.224904"><ele>1067</ele></trkpt>
   <trkpt lat="47.424578" lon="12.224983"><ele>1070.5</ele></trkpt>
   <trkpt lat="47.424684" lon="12.225168"><ele>1072.75</ele></trkpt>
   <trkpt lat="47.424381" lon="12.22524"><ele>1087.75</ele></trkpt>
   <trkpt lat="47.424374" lon="12.225273"><ele>1089.5</ele></trkpt>
   <trkpt lat="47.4245" lon="12.225427"><ele>1090.25</ele></trkpt>
   <trkpt lat="47.424535" lon="12.225448"><ele>1089</ele></trkpt>
   <trkpt lat="47.424569" lon="12.22552"><ele>1089.5</ele></trkpt>
   <trkpt lat="47.424476" lon="12.226038"><ele>1105.25</ele></trkpt>
   <trkpt lat="47.424494" lon="12.226391"><ele>1113</ele></trkpt>
   <trkpt lat="47.424528" lon="12.226523"><ele>1113.75</ele></trkpt>
   <trkpt lat="47.424578" lon="12.226633"><ele>1113</ele></trkpt>
   <trkpt lat="47.424613" lon="12.226925"><ele>1116.25</ele></trkpt>
   <trkpt lat="47.424599" lon="12.226957"><ele>1117.75</ele></trkpt>
   <trkpt lat="47.424527" lon="12.226921"><ele>1121.5</ele></trkpt>
   <trkpt lat="47.424532" lon="12.227011"><ele>1123</ele></trkpt>
   <trkpt lat="47.424557" lon="12.227131"><ele>1123.5</ele></trkpt>
   <trkpt lat="47.424501" lon="12.227074"><ele>1126.25</ele></trkpt>
   <trkpt lat="47.42444" lon="12.226926"><ele>1126.75</ele></trkpt>
   <trkpt lat="47.424373" lon="12.226914"><ele>1128.5</ele></trkpt>
   <trkpt lat="47.42433" lon="12.226833"><ele>1128.25</ele></trkpt>
   <trkpt lat="47.424267" lon="12.226754"><ele>1128.25</ele></trkpt>
   <trkpt lat="47.424152" lon="12.226658"><ele>1128.75</ele></trkpt>
   <trkpt lat="47.424086" lon="12.226625"><ele>1127.75</ele></trkpt>
   <trkpt lat="47.424006" lon="12.226591"><ele>1127</ele></trkpt>
   <trkpt lat="47.423813" lon="12.226539"><ele>1126</ele></trkpt>
   <trkpt lat="47.42377" lon="12.226563"><ele>1126.75</ele></trkpt>
   <trkpt lat="47.423682" lon="12.226641"><ele>1128.5</ele></trkpt>
   <trkpt lat="47.423665" lon="12.22667"><ele>1129</ele></trkpt>
   <trkpt lat="47.423621" lon="12.226687"><ele>1129</ele></trkpt>
   <trkpt lat="47.423567" lon="12.226694"><ele>1129.5</ele></trkpt>
   <trkpt lat="47.423471" lon="12.226655"><ele>1129.75</ele></trkpt>
   <trkpt lat="47.423301" lon="12.226565"><ele>1129.75</ele></trkpt>
   <trkpt lat="47.423263" lon="12.226568"><ele>1130.5</ele></trkpt>
   <trkpt lat="47.423344" lon="12.226827"><ele>1133</ele></trkpt>
   <trkpt lat="47.423394" lon="12.227158"><ele>1136.75</ele></trkpt>
   <trkpt lat="47.423319" lon="12.227172"><ele>1137.75</ele></trkpt>
   <trkpt lat="47.422765" lon="12.2272"><ele>1148.25</ele></trkpt>
   <trkpt lat="47.422217" lon="12.227083"><ele>1145.5</ele></trkpt>
   <trkpt lat="47.421951" lon="12.22672"><ele>1143.5</ele></trkpt>
   <trkpt lat="47.420976" lon="12.226013"><ele>1142</ele></trkpt>
   <trkpt lat="47.420723" lon="12.225873"><ele>1142.75</ele></trkpt>
   <trkpt lat="47.420455" lon="12.225512"><ele>1141.25</ele></trkpt>
   <trkpt lat="47.420359" lon="12.225314"><ele>1139.25</ele></trkpt>
   <trkpt lat="47.420082" lon="12.22542"><ele>1146.25</ele></trkpt>
   <trkpt lat="47.419865" lon="12.225379"><ele>1151.25</ele></trkpt>
   <trkpt lat="47.41961" lon="12.225194"><ele>1156</ele></trkpt>
   <trkpt lat="47.419378" lon="12.225011"><ele>1160.75</ele></trkpt>
   <trkpt lat="47.418914" lon="12.225281"><ele>1176.75</ele></trkpt>
   <trkpt lat="47.418853" lon="12.225243"><ele>1176.25</ele></trkpt>
   <trkpt lat="47.418454" lon="12.225473"><ele>1181.5</ele></trkpt>
   <trkpt lat="47.418384" lon="12.225456"><ele>1183</ele></trkpt>
   <trkpt lat="47.418288" lon="12.225371"><ele>1182.25</ele></trkpt>
   <trkpt lat="47.41818" lon="12.225322"><ele>1181.5</ele></trkpt>
   <trkpt lat="47.418035" lon="12.225409"><ele>1183</ele></trkpt>
   <trkpt lat="47.417889" lon="12.225467"><ele>1180</ele></trkpt>
   <trkpt lat="47.417683" lon="12.225742"><ele>1179.5</ele></trkpt>
   <trkpt lat="47.417576" lon="12.22585"><ele>1178.5</ele></trkpt>
   <trkpt lat="47.417496" lon="12.22587"><ele>1176.75</ele></trkpt>
   <trkpt lat="47.417231" lon="12.225688"><ele>1175.25</ele></trkpt>
   <trkpt lat="47.417163" lon="12.225628"><ele>1174.5</ele></trkpt>
   <trkpt lat="47.417151" lon="12.225633"><ele>1174.75</ele></trkpt>
   <trkpt lat="47.417146" lon="12.225649"><ele>1175</ele></trkpt>
   <trkpt lat="47.417272" lon="12.225873"><ele>1178.5</ele></trkpt>
   <trkpt lat="47.417225" lon="12.225864"><ele>1178.5</ele></trkpt>
   <trkpt lat="47.417104" lon="12.22585"><ele>1178.25</ele></trkpt>
   <trkpt lat="47.416847" lon="12.225847"><ele>1177.75</ele></trkpt>
   <trkpt lat="47.416764" lon="12.225813"><ele>1177</ele></trkpt>
   <trkpt lat="47.416714" lon="12.225793"><ele>1176.5</ele></trkpt>
   <trkpt lat="47.416632" lon="12.225705"><ele>1174.5</ele></trkpt>
   <trkpt lat="47.416472" lon="12.225939"><ele>1176.5</ele></trkpt>
   <trkpt lat="47.416338" lon="12.226104"><ele>1178</ele></trkpt>
   <trkpt lat="47.416362" lon="12.226165"><ele>1180</ele></trkpt>
   <trkpt lat="47.4164" lon="12.226208"><ele>1181.75</ele></trkpt>
   <trkpt lat="47.416442" lon="12.226234"><ele>1182.75</ele></trkpt>
   <trkpt lat="47.416613" lon="12.226237"><ele>1183.75</ele></trkpt>
   <trkpt lat="47.416706" lon="12.226249"><ele>1184.5</ele></trkpt>
   <trkpt lat="47.416856" lon="12.226319"><ele>1186.75</ele></trkpt>
   <trkpt lat="47.416932" lon="12.226379"><ele>1188.5</ele></trkpt>
   <trkpt lat="47.417044" lon="12.226518"><ele>1192.5</ele></trkpt>
   <trkpt lat="47.417092" lon="12.226626"><ele>1194.75</ele></trkpt>
   <trkpt lat="47.417211" lon="12.227008"><ele>1202.25</ele></trkpt>
   <trkpt lat="47.417423" lon="12.227322"><ele>1209.75</ele></trkpt>
   <trkpt lat="47.417641" lon="12.227535"><ele>1215</ele></trkpt>
   <trkpt lat="47.417671" lon="12.227656"><ele>1218.5</ele></trkpt>
   <trkpt lat="47.417755" lon="12.227762"><ele>1222.25</ele></trkpt>
   <trkpt lat="47.417883" lon="12.227959"><ele>1227.75</ele></trkpt>
   <trkpt lat="47.417899" lon="12.227968"><ele>1228</ele></trkpt>
   <trkpt lat="47.417962" lon="12.227995"><ele>1228.75</ele></trkpt>
   <trkpt lat="47.417987" lon="12.228005"><ele>1229</ele></trkpt>
   <trkpt lat="47.418145" lon="12.228052"><ele>1231.5</ele></trkpt>
   <trkpt lat="47.418387" lon="12.228089"><ele>1235.75</ele></trkpt>
   <trkpt lat="47.418646" lon="12.228145"><ele>1238.75</ele></trkpt>
   <trkpt lat="47.418748" lon="12.228181"><ele>1240.5</ele></trkpt>
   <trkpt lat="47.418999" lon="12.228352"><ele>1244.25</ele></trkpt>
   <trkpt lat="47.419043" lon="12.228375"><ele>1245</ele></trkpt>
   <trkpt lat="47.41915" lon="12.2284"><ele>1246.75</ele></trkpt>
   <trkpt lat="47.41933" lon="12.228411"><ele>1248.5</ele></trkpt>
   <trkpt lat="47.419399" lon="12.228425"><ele>1249.5</ele></trkpt>
   <trkpt lat="47.419547" lon="12.228475"><ele>1252.25</ele></trkpt>
   <trkpt lat="47.419794" lon="12.228591"><ele>1256.75</ele></trkpt>
   <trkpt lat="47.41984" lon="12.228623"><ele>1257.25</ele></trkpt>
   <trkpt lat="47.419865" lon="12.228612"><ele>1256.75</ele></trkpt>
   <trkpt lat="47.419886" lon="12.228625"><ele>1257</ele></trkpt>
   <trkpt lat="47.4199" lon="12.228668"><ele>1258</ele></trkpt>
   <trkpt lat="47.420286" lon="12.228937"><ele>1263.75</ele></trkpt>
   <trkpt lat="47.42054" lon="12.229152"><ele>1268.5</ele></trkpt>
   <trkpt lat="47.420694" lon="12.229256"><ele>1272</ele></trkpt>
   <trkpt lat="47.420921" lon="12.22939"><ele>1276</ele></trkpt>
   <trkpt lat="47.421153" lon="12.229564"><ele>1280.25</ele></trkpt>
   <trkpt lat="47.421257" lon="12.229656"><ele>1281.75</ele></trkpt>
   <trkpt lat="47.42133" lon="12.229745"><ele>1283.75</ele></trkpt>
   <trkpt lat="47.421399" lon="12.229848"><ele>1285.75</ele></trkpt>
   <trkpt lat="47.421482" lon="12.229981"><ele>1286.75</ele></trkpt>
   <trkpt lat="47.421521" lon="12.230061"><ele>1287.5</ele></trkpt>
   <trkpt lat="47.421555" lon="12.230177"><ele>1289.25</ele></trkpt>
   <trkpt lat="47.421611" lon="12.230446"><ele>1294</ele></trkpt>
   <trkpt lat="47.421639" lon="12.230537"><ele>1295.75</ele></trkpt>
   <trkpt lat="47.421684" lon="12.230633"><ele>1296.75</ele></trkpt>
   <trkpt lat="47.42176" lon="12.230762"><ele>1298.75</ele></trkpt>
   <trkpt lat="47.421845" lon="12.230874"><ele>1301.75</ele></trkpt>
   <trkpt lat="47.421878" lon="12.230896"><ele>1302.5</ele></trkpt>
   <trkpt lat="47.421908" lon="12.23091"><ele>1303.25</ele></trkpt>
   <trkpt lat="47.421983" lon="12.230907"><ele>1303.5</ele></trkpt>
   <trkpt lat="47.42204" lon="12.230882"><ele>1303.25</ele></trkpt>
   <trkpt lat="47.422154" lon="12.230811"><ele>1302</ele></trkpt>
   <trkpt lat="47.42219" lon="12.230814"><ele>1302.5</ele></trkpt>
   <trkpt lat="47.422287" lon="12.230858"><ele>1305.25</ele></trkpt>
   <trkpt lat="47.42235" lon="12.230893"><ele>1306.75</ele></trkpt>
   <trkpt lat="47.42238" lon="12.230907"><ele>1307.5</ele></trkpt>
   <trkpt lat="47.422423" lon="12.230907"><ele>1308</ele></trkpt>
   <trkpt lat="47.422567" lon="12.230875"><ele>1308.5</ele></trkpt>
   <trkpt lat="47.422616" lon="12.230875"><ele>1308.75</ele></trkpt>
   <trkpt lat="47.422842" lon="12.230982"><ele>1312</ele></trkpt>
   <trkpt lat="47.422913" lon="12.231012"><ele>1312.5</ele></trkpt>
   <trkpt lat="47.422986" lon="12.231064"><ele>1314</ele></trkpt>
   <trkpt lat="47.423072" lon="12.231143"><ele>1316.25</ele></trkpt>
   <trkpt lat="47.42315" lon="12.231237"><ele>1316</ele></trkpt>
   <trkpt lat="47.423189" lon="12.231318"><ele>1316.75</ele></trkpt>
   <trkpt lat="47.423285" lon="12.231596"><ele>1318</ele></trkpt>
   <trkpt lat="47.423311" lon="12.231735"><ele>1319</ele></trkpt>
   <trkpt lat="47.423309" lon="12.231965"><ele>1321</ele></trkpt>
   <trkpt lat="47.423302" lon="12.232182"><ele>1322.25</ele></trkpt>
   <trkpt lat="47.423322" lon="12.23272"><ele>1329.25</ele></trkpt>
   <trkpt lat="47.423316" lon="12.233089"><ele>1334</ele></trkpt>
   <trkpt lat="47.42298" lon="12.232626"><ele>1347.25</ele></trkpt>
   <trkpt lat="47.422978" lon="12.233064"><ele>1353.75</ele></trkpt>
   <trkpt lat="47.422814" lon="12.233642"><ele>1368.5</ele></trkpt>
   <trkpt lat="47.422776" lon="12.234156"><ele>1375</ele></trkpt>
   <trkpt lat="47.422738" lon="12.234326"><ele>1378.5</ele></trkpt>
   <trkpt lat="47.422662" lon="12.234917"><ele>1387</ele></trkpt>
   <trkpt lat="47.422678" lon="12.23516"><ele>1386.75</ele></trkpt>
   <trkpt lat="47.422674" lon="12.235468"><ele>1391</ele></trkpt>
   <trkpt lat="47.422822" lon="12.235738"><ele>1391.5</ele></trkpt>
   <trkpt lat="47.422524" lon="12.235741"><ele>1404.75</ele></trkpt>
   <trkpt lat="47.422545" lon="12.236009"><ele>1411.5</ele></trkpt>
   <trkpt lat="47.422511" lon="12.236302"><ele>1418.25</ele></trkpt>
   <trkpt lat="47.422417" lon="12.236162"><ele>1421</ele></trkpt>
   <trkpt lat="47.422211" lon="12.235996"><ele>1425</ele></trkpt>
   <trkpt lat="47.422155" lon="12.235961"><ele>1426.5</ele></trkpt>
   <trkpt lat="47.421946" lon="12.235848"><ele>1430.5</ele></trkpt>
   <trkpt lat="47.421888" lon="12.235746"><ele>1431.75</ele></trkpt>
   <trkpt lat="47.421848" lon="12.235611"><ele>1432.5</ele></trkpt>
   <trkpt lat="47.421793" lon="12.235383"><ele>1435.25</ele></trkpt>
   <trkpt lat="47.421789" lon="12.235204"><ele>1435.5</ele></trkpt>
   <trkpt lat="47.421799" lon="12.235046"><ele>1435.5</ele></trkpt>
   <trkpt lat="47.421776" lon="12.234918"><ele>1436</ele></trkpt>
   <trkpt lat="47.421757" lon="12.234877"><ele>1436.75</ele></trkpt>
   <trkpt lat="47.421713" lon="12.235086"><ele>1440.25</ele></trkpt>
   <trkpt lat="47.42155" lon="12.235687"><ele>1451</ele></trkpt>
   <trkpt lat="47.42149" lon="12.236037"><ele>1460</ele></trkpt>
   <trkpt lat="47.421484" lon="12.236232"><ele>1464.5</ele></trkpt>
   <trkpt lat="47.421439" lon="12.236182"><ele>1465.25</ele></trkpt>
   <trkpt lat="47.421295" lon="12.235947"><ele>1469.25</ele></trkpt>
   <trkpt lat="47.421212" lon="12.235704"><ele>1471.75</ele></trkpt>
   <trkpt lat="47.421112" lon="12.235494"><ele>1476.25</ele></trkpt>
   <trkpt lat="47.420916" lon="12.235327"><ele>1480.5</ele></trkpt>
   <trkpt lat="47.420811" lon="12.235612"><ele>1490.25</ele></trkpt>
   <trkpt lat="47.420523" lon="12.236148"><ele>1510.25</ele></trkpt>
   <trkpt lat="47.420576" lon="12.236218"><ele>1511.25</ele></trkpt>
   <trkpt lat="47.420627" lon="12.236341"><ele>1511.25</ele></trkpt>
   <trkpt lat="47.420631" lon="12.236594"><ele>1514.5</ele></trkpt>
   <trkpt lat="47.420615" lon="12.236743"><ele>1517</ele></trkpt>
   <trkpt lat="47.420577" lon="12.236792"><ele>1519.25</ele></trkpt>
   <trkpt lat="47.420548" lon="12.23674"><ele>1519.75</ele></trkpt>
   <trkpt lat="47.420514" lon="12.236657"><ele>1519.5</ele></trkpt>
   <trkpt lat="47.420485" lon="12.236562"><ele>1518.5</ele></trkpt>
   <trkpt lat="47.420438" lon="12.236527"><ele>1518.5</ele></trkpt>
   <trkpt lat="47.420382" lon="12.23653"><ele>1519</ele></trkpt>
   <trkpt lat="47.420176" lon="12.236695"><ele>1524</ele></trkpt>
   <trkpt lat="47.419739" lon="12.237026"><ele>1532</ele></trkpt>
   <trkpt lat="47.419431" lon="12.237307"><ele>1537.5</ele></trkpt>
   <trkpt lat="47.419254" lon="12.237563"><ele>1540.5</ele></trkpt>
   <trkpt lat="47.419135" lon="12.237939"><ele>1546.75</ele></trkpt>
   <trkpt lat="47.419118" lon="12.238033"><ele>1548.5</ele></trkpt>
   <trkpt lat="47.419206" lon="12.237987"><ele>1549.25</ele></trkpt>
   <trkpt lat="47.419319" lon="12.237805"><ele>1549.5</ele></trkpt>
   <trkpt lat="47.419417" lon="12.237755"><ele>1551.25</ele></trkpt>
   <trkpt lat="47.419853" lon="12.237648"><ele>1553.5</ele></trkpt>
   <trkpt lat="47.41986" lon="12.237647"><ele>1553.5</ele></trkpt>
   <trkpt lat="47.419747" lon="12.237836"><ele>1558.75</ele></trkpt>
   <trkpt lat="47.41988" lon="12.237892"><ele>1560.5</ele></trkpt>
   <trkpt lat="47.419908" lon="12.237983"><ele>1563.5</ele></trkpt>
   <trkpt lat="47.419942" lon="12.238049"><ele>1565.75</ele></trkpt>
   <trkpt lat="47.419906" lon="12.238066"><ele>1566.25</ele></trkpt>
   <trkpt lat="47.419904" lon="12.238077"><ele>1566.5</ele></trkpt>
   <trkpt lat="47.419933" lon="12.238091"><ele>1567</ele></trkpt>
   <trkpt lat="47.419936" lon="12.23811"><ele>1567.5</ele></trkpt>
   <trkpt lat="47.41993" lon="12.23812"><ele>1567.75</ele></trkpt>
   <trkpt lat="47.419818" lon="12.238197"><ele>1570.25</ele></trkpt>
   <trkpt lat="47.419719" lon="12.238314"><ele>1574.25</ele></trkpt>
   <trkpt lat="47.419663" lon="12.238366"><ele>1574.75</ele></trkpt>
   <trkpt lat="47.419575" lon="12.238513"><ele>1577.75</ele></trkpt>
   <trkpt lat="47.419517" lon="12.23857"><ele>1579</ele></trkpt>
   <trkpt lat="47.419483" lon="12.238659"><ele>1581.25</ele></trkpt>
   <trkpt lat="47.41949" lon="12.238755"><ele>1583.75</ele></trkpt>
   <trkpt lat="47.419378" lon="12.238959"><ele>1587</ele></trkpt>
   <trkpt lat="47.419346" lon="12.239093"><ele>1589.75</ele></trkpt>
   <trkpt lat="47.419332" lon="12.239278"><ele>1595.25</ele></trkpt>
   <trkpt lat="47.419261" lon="12.239447"><ele>1601.75</ele></trkpt>
   <trkpt lat="47.419227" lon="12.23945"><ele>1602</ele></trkpt>
   <trkpt lat="47.419211" lon="12.239464"><ele>1602.5</ele></trkpt>
   <trkpt lat="47.419205" lon="12.239483"><ele>1603.25</ele></trkpt>
   <trkpt lat="47.419216" lon="12.239502"><ele>1604</ele></trkpt>
   <trkpt lat="47.419319" lon="12.239566"><ele>1605.5</ele></trkpt>
   <trkpt lat="47.419356" lon="12.239624"><ele>1607.25</ele></trkpt>
   <trkpt lat="47.419355" lon="12.239648"><ele>1608</ele></trkpt>
   <trkpt lat="47.419341" lon="12.239667"><ele>1608.75</ele></trkpt>
   <trkpt lat="47.419313" lon="12.239679"><ele>1609.75</ele></trkpt>
   <trkpt lat="47.419117" lon="12.239733"><ele>1614.25</ele></trkpt>
   <trkpt lat="47.419054" lon="12.239764"><ele>1615.25</ele></trkpt>
   <trkpt lat="47.419048" lon="12.239785"><ele>1616</ele></trkpt>
   <trkpt lat="47.419106" lon="12.239858"><ele>1618.5</ele></trkpt>
   <trkpt lat="47.419192" lon="12.23994"><ele>1620.5</ele></trkpt>
   <trkpt lat="47.419261" lon="12.240078"><ele>1623</ele></trkpt>
   <trkpt lat="47.419311" lon="12.24026"><ele>1627.25</ele></trkpt>
   <trkpt lat="47.419171" lon="12.240423"><ele>1632.5</ele></trkpt>
   <trkpt lat="47.419067" lon="12.240463"><ele>1635.25</ele></trkpt>
   <trkpt lat="47.418819" lon="12.240497"><ele>1642</ele></trkpt>
   <trkpt lat="47.418706" lon="12.240556"><ele>1647.25</ele></trkpt>
   <trkpt lat="47.418506" lon="12.240757"><ele>1653</ele></trkpt>
   <trkpt lat="47.418405" lon="12.240954"><ele>1658.75</ele></trkpt>
   <trkpt lat="47.41811" lon="12.241429"><ele>1665</ele></trkpt>
   <trkpt lat="47.417827" lon="12.241755"><ele>1671.25</ele></trkpt>
   <trkpt lat="47.417601" lon="12.242058"><ele>1675</ele></trkpt>
   <trkpt lat="47.417433" lon="12.24235"><ele>1676.25</ele></trkpt>
   <trkpt lat="47.417369" lon="12.242543"><ele>1677.5</ele></trkpt>
   <trkpt lat="47.417234" lon="12.243068"><ele>1684</ele></trkpt>
   <trkpt lat="47.417145" lon="12.243259"><ele>1686</ele></trkpt>
   <trkpt lat="47.416993" lon="12.24351"><ele>1691.75</ele></trkpt>
   <trkpt lat="47.416294" lon="12.24405"><ele>1702.5</ele></trkpt>
   <trkpt lat="47.416143" lon="12.244274"><ele>1705.25</ele></trkpt>
   <trkpt lat="47.416002" lon="12.244602"><ele>1709.5</ele></trkpt>
   <trkpt lat="47.415921" lon="12.244734"><ele>1711.25</ele></trkpt>
   <trkpt lat="47.415792" lon="12.244842"><ele>1712.75</ele></trkpt>
   <trkpt lat="47.415531" lon="12.245001"><ele>1716</ele></trkpt>
   <trkpt lat="47.415408" lon="12.245133"><ele>1717.25</ele></trkpt>
   <trkpt lat="47.415317" lon="12.245324"><ele>1719.75</ele></trkpt>
   <trkpt lat="47.415136" lon="12.245836"><ele>1723.75</ele></trkpt>
   <trkpt lat="47.415078" lon="12.245956"><ele>1725.5</ele></trkpt>
   <trkpt lat="47.414964" lon="12.246098"><ele>1726.5</ele></trkpt>
   <trkpt lat="47.414811" lon="12.246215"><ele>1729.5</ele></trkpt>
   <trkpt lat="47.414484" lon="12.246398"><ele>1734.75</ele></trkpt>
   <trkpt lat="47.414047" lon="12.246475"><ele>1738.75</ele></trkpt>
   <trkpt lat="47.413729" lon="12.246561"><ele>1742.25</ele></trkpt>
   <trkpt lat="47.413112" lon="12.246861"><ele>1753.5</ele></trkpt>
   <trkpt lat="47.412947" lon="12.246969"><ele>1759.25</ele></trkpt>
   <trkpt lat="47.412891" lon="12.247036"><ele>1760.75</ele></trkpt>
   <trkpt lat="47.412877" lon="12.247104"><ele>1761.5</ele></trkpt>
   <trkpt lat="47.412889" lon="12.247248"><ele>1762.25</ele></trkpt>
   <trkpt lat="47.412885" lon="12.247304"><ele>1762</ele></trkpt>
   <trkpt lat="47.412892" lon="12.247323"><ele>1761.75</ele></trkpt>
   <trkpt lat="47.412912" lon="12.247382"><ele>1761.5</ele></trkpt>
   <trkpt lat="47.412941" lon="12.247396"><ele>1761.5</ele></trkpt>
   <trkpt lat="47.413171" lon="12.247656"><ele>1761.25</ele></trkpt>
   <trkpt lat="47.413202" lon="12.247674"><ele>1762</ele></trkpt>
   <trkpt lat="47.413236" lon="12.247681"><ele>1762.75</ele></trkpt>
   <trkpt lat="47.413275" lon="12.247683"><ele>1763.75</ele></trkpt>
   <trkpt lat="47.413303" lon="12.247667"><ele>1764.5</ele></trkpt>
   <trkpt lat="47.413326" lon="12.247638"><ele>1765.25</ele></trkpt>
   <trkpt lat="47.41339" lon="12.247516"><ele>1768</ele></trkpt>
   <trkpt lat="47.413523" lon="12.2473"><ele>1769.25</ele></trkpt>
   <trkpt lat="47.413584" lon="12.247217"><ele>1769</ele></trkpt>
   <trkpt lat="47.413677" lon="12.247145"><ele>1768.5</ele></trkpt>
   <trkpt lat="47.413754" lon="12.247119"><ele>1769.5</ele></trkpt>
   <trkpt lat="47.413826" lon="12.247112"><ele>1770.75</ele></trkpt>
   <trkpt lat="47.413958" lon="12.247117"><ele>1772.5</ele></trkpt>
   <trkpt lat="47.414427" lon="12.247153"><ele>1774.5</ele></trkpt>
   <trkpt lat="47.414668" lon="12.247149"><ele>1776</ele></trkpt>
   <trkpt lat="47.414773" lon="12.247127"><ele>1776.5</ele></trkpt>
   <trkpt lat="47.415147" lon="12.247011"><ele>1779.75</ele></trkpt>
   <trkpt lat="47.415356" lon="12.246932"><ele>1781</ele></trkpt>
   <trkpt lat="47.415483" lon="12.246857"><ele>1781.25</ele></trkpt>
   <trkpt lat="47.415777" lon="12.246664"><ele>1782.25</ele></trkpt>
   <trkpt lat="47.415913" lon="12.246563"><ele>1783.25</ele></trkpt>
   <trkpt lat="47.416194" lon="12.246393"><ele>1786.75</ele></trkpt>
   <trkpt lat="47.416324" lon="12.246305"><ele>1787.75</ele></trkpt>
   <trkpt lat="47.41641" lon="12.246229"><ele>1788.25</ele></trkpt>
   <trkpt lat="47.416767" lon="12.245872"><ele>1791.25</ele></trkpt>
   <trkpt lat="47.417137" lon="12.245582"><ele>1795.75</ele></trkpt>
   <trkpt lat="47.417376" lon="12.24543"><ele>1798</ele></trkpt>
   <trkpt lat="47.417642" lon="12.245276"><ele>1800.5</ele></trkpt>
   <trkpt lat="47.417702" lon="12.245232"><ele>1800.5</ele></trkpt>
   <trkpt lat="47.417888" lon="12.245066"><ele>1801.75</ele></trkpt>
   <trkpt lat="47.418151" lon="12.244889"><ele>1805.5</ele></trkpt>
   <trkpt lat="47.418363" lon="12.244762"><ele>1808.5</ele></trkpt>
   <trkpt lat="47.418563" lon="12.244661"><ele>1809</ele></trkpt>
   <trkpt lat="47.418911" lon="12.244606"><ele>1811.75</ele></trkpt>
   <trkpt lat="47.418923" lon="12.244605"><ele>1811.75</ele></trkpt>
   <trkpt lat="47.419025" lon="12.244621"><ele>1812.75</ele></trkpt>
   <trkpt lat="47.419101" lon="12.244655"><ele>1813.5</ele></trkpt>
   <trkpt lat="47.419181" lon="12.244693"><ele>1813.5</ele></trkpt>
   <trkpt lat="47.419296" lon="12.244724"><ele>1812</ele></trkpt>
   <trkpt lat="47.419297" lon="12.244719"><ele>1811.75</ele></trkpt>
   <trkpt lat="47.419307" lon="12.244682"><ele>1811.75</ele></trkpt>
   <trkpt lat="47.419466" lon="12.244569"><ele>1810</ele></trkpt>
   <trkpt lat="47.419543" lon="12.244549"><ele>1809</ele></trkpt>
   <trkpt lat="47.419661" lon="12.244573"><ele>1807.25</ele></trkpt>
   <trkpt lat="47.419744" lon="12.244595"><ele>1805.75</ele></trkpt>
   <trkpt lat="47.419873" lon="12.244753"><ele>1802.25</ele></trkpt>
   <trkpt lat="47.420025" lon="12.244813"><ele>1796.75</ele></trkpt>
   <trkpt lat="47.420548" lon="12.245125"><ele>1782.5</ele></trkpt>
   <trkpt lat="47.421027" lon="12.245388"><ele>1771.75</ele></trkpt>
   <trkpt lat="47.421195" lon="12.245524"><ele>1769.25</ele></trkpt>
   <trkpt lat="47.421283" lon="12.245795"><ele>1763.5</ele></trkpt>
   <trkpt lat="47.421283" lon="12.246171"><ele>1755</ele></trkpt>
   <trkpt lat="47.42131" lon="12.246547"><ele>1747.25</ele></trkpt>
   <trkpt lat="47.421347" lon="12.246881"><ele>1740.5</ele></trkpt>
   <trkpt lat="47.421419" lon="12.247121"><ele>1735.25</ele></trkpt>
   <trkpt lat="47.421515" lon="12.247384"><ele>1728.25</ele></trkpt>
   <trkpt lat="47.42161" lon="12.247799"><ele>1722.25</ele></trkpt>
   <trkpt lat="47.421719" lon="12.248503"><ele>1715</ele></trkpt>
   <trkpt lat="47.421786" lon="12.248808"><ele>1712</ele></trkpt>
   <trkpt lat="47.421819" lon="12.24913"><ele>1708.25</ele></trkpt>
   <trkpt lat="47.421863" lon="12.249457"><ele>1704.75</ele></trkpt>
   <trkpt lat="47.421924" lon="12.249757"><ele>1702.25</ele></trkpt>
   <trkpt lat="47.422024" lon="12.250117"><ele>1696.5</ele></trkpt>
   <trkpt lat="47.422218" lon="12.250777"><ele>1687.5</ele></trkpt>
   <trkpt lat="47.422268" lon="12.251143"><ele>1679</ele></trkpt>
   <trkpt lat="47.422307" lon="12.251209"><ele>1676.5</ele></trkpt>
   <trkpt lat="47.422393" lon="12.251498"><ele>1670</ele></trkpt>
   <trkpt lat="47.422353" lon="12.25154"><ele>1669.75</ele></trkpt>
   <trkpt lat="47.422293" lon="12.25155"><ele>1670</ele></trkpt>
   <trkpt lat="47.422159" lon="12.251493"><ele>1670.25</ele></trkpt>
   <trkpt lat="47.422024" lon="12.251406"><ele>1669.25</ele></trkpt>
   <trkpt lat="47.421832" lon="12.251264"><ele>1667</ele></trkpt>
   <trkpt lat="47.421464" lon="12.250954"><ele>1663.25</ele></trkpt>
   <trkpt lat="47.421242" lon="12.250816"><ele>1659.5</ele></trkpt>
   <trkpt lat="47.421131" lon="12.250769"><ele>1657.75</ele></trkpt>
   <trkpt lat="47.420852" lon="12.250689"><ele>1654.25</ele></trkpt>
   <trkpt lat="47.420727" lon="12.250666"><ele>1652</ele></trkpt>
   <trkpt lat="47.420666" lon="12.250705"><ele>1650</ele></trkpt>
   <trkpt lat="47.420668" lon="12.250761"><ele>1649.25</ele></trkpt>
   <trkpt lat="47.420706" lon="12.25089"><ele>1647.5</ele></trkpt>
   <trkpt lat="47.420759" lon="12.251142"><ele>1644.5</ele></trkpt>
   <trkpt lat="47.420868" lon="12.251716"><ele>1638.25</ele></trkpt>
   <trkpt lat="47.420879" lon="12.251829"><ele>1637.25</ele></trkpt>
   <trkpt lat="47.420865" lon="12.251936"><ele>1635.75</ele></trkpt>
   <trkpt lat="47.420829" lon="12.252032"><ele>1634.5</ele></trkpt>
   <trkpt lat="47.420694" lon="12.252293"><ele>1629.5</ele></trkpt>
   <trkpt lat="47.420643" lon="12.25245"><ele>1627.5</ele></trkpt>
   <trkpt lat="47.420617" lon="12.252616"><ele>1626.25</ele></trkpt>
   <trkpt lat="47.420608" lon="12.252843"><ele>1624.5</ele></trkpt>
   <trkpt lat="47.420602" lon="12.253064"><ele>1621.25</ele></trkpt>
   <trkpt lat="47.420608" lon="12.253488"><ele>1617</ele></trkpt>
   <trkpt lat="47.420632" lon="12.253606"><ele>1616.5</ele></trkpt>
   <trkpt lat="47.420679" lon="12.253717"><ele>1614.25</ele></trkpt>
   <trkpt lat="47.420822" lon="12.253973"><ele>1611</ele></trkpt>
   <trkpt lat="47.420887" lon="12.254025"><ele>1608.75</ele></trkpt>
   <trkpt lat="47.420963" lon="12.254041"><ele>1607.25</ele></trkpt>
   <trkpt lat="47.421038" lon="12.254025"><ele>1607</ele></trkpt>
   <trkpt lat="47.421256" lon="12.253947"><ele>1605.25</ele></trkpt>
   <trkpt lat="47.421347" lon="12.253942"><ele>1603.25</ele></trkpt>
   <trkpt lat="47.421495" lon="12.25396"><ele>1601.5</ele></trkpt>
   <trkpt lat="47.421812" lon="12.25404"><ele>1599.5</ele></trkpt>
   <trkpt lat="47.421902" lon="12.25408"><ele>1598.75</ele></trkpt>
   <trkpt lat="47.421967" lon="12.254139"><ele>1597.25</ele></trkpt>
   <trkpt lat="47.422065" lon="12.254241"><ele>1595.25</ele></trkpt>
   <trkpt lat="47.422151" lon="12.254361"><ele>1593</ele></trkpt>
   <trkpt lat="47.422276" lon="12.254482"><ele>1590.75</ele></trkpt>
   <trkpt lat="47.422427" lon="12.254575"><ele>1588.25</ele></trkpt>
   <trkpt lat="47.422705" lon="12.254735"><ele>1583.5</ele></trkpt>
   <trkpt lat="47.42291" lon="12.254826"><ele>1579.75</ele></trkpt>
   <trkpt lat="47.423178" lon="12.254917"><ele>1576.5</ele></trkpt>
   <trkpt lat="47.423298" lon="12.254974"><ele>1574</ele></trkpt>
   <trkpt lat="47.423521" lon="12.255031"><ele>1572.25</ele></trkpt>
   <trkpt lat="47.423658" lon="12.255031"><ele>1571.5</ele></trkpt>
   <trkpt lat="47.423783" lon="12.254997"><ele>1569.75</ele></trkpt>
   <trkpt lat="47.424006" lon="12.254991"><ele>1565</ele></trkpt>
   <trkpt lat="47.424337" lon="12.25494"><ele>1561.25</ele></trkpt>
   <trkpt lat="47.424445" lon="12.254972"><ele>1558</ele></trkpt>
   <trkpt lat="47.424593" lon="12.255043"><ele>1555.5</ele></trkpt>
   <trkpt lat="47.424747" lon="12.255065"><ele>1554.75</ele></trkpt>
   <trkpt lat="47.424919" lon="12.255077"><ele>1552</ele></trkpt>
   <trkpt lat="47.425073" lon="12.255105"><ele>1549.5</ele></trkpt>
   <trkpt lat="47.425238" lon="12.255105"><ele>1548.5</ele></trkpt>
   <trkpt lat="47.425386" lon="12.255037"><ele>1548</ele></trkpt>
   <trkpt lat="47.425512" lon="12.254929"><ele>1547.25</ele></trkpt>
   <trkpt lat="47.425669" lon="12.254761"><ele>1545.5</ele></trkpt>
   <trkpt lat="47.425765" lon="12.254775"><ele>1543.75</ele></trkpt>
   <trkpt lat="47.425801" lon="12.254781"><ele>1543.25</ele></trkpt>
   <trkpt lat="47.425846" lon="12.254851"><ele>1542</ele></trkpt>
   <trkpt lat="47.425883" lon="12.25498"><ele>1540.25</ele></trkpt>
   <trkpt lat="47.425797" lon="12.255185"><ele>1539.5</ele></trkpt>
   <trkpt lat="47.425643" lon="12.255351"><ele>1537</ele></trkpt>
   <trkpt lat="47.425461" lon="12.255493"><ele>1534.5</ele></trkpt>
   <trkpt lat="47.425329" lon="12.255573"><ele>1532.75</ele></trkpt>
   <trkpt lat="47.425124" lon="12.255636"><ele>1529.5</ele></trkpt>
   <trkpt lat="47.424907" lon="12.25567"><ele>1527.5</ele></trkpt>
   <trkpt lat="47.424713" lon="12.255716"><ele>1525.25</ele></trkpt>
   <trkpt lat="47.424525" lon="12.255733"><ele>1523</ele></trkpt>
   <trkpt lat="47.424365" lon="12.255762"><ele>1523</ele></trkpt>
   <trkpt lat="47.42428" lon="12.255836"><ele>1522</ele></trkpt>
   <trkpt lat="47.424114" lon="12.25607"><ele>1517</ele></trkpt>
   <trkpt lat="47.42384" lon="12.256423"><ele>1511.75</ele></trkpt>
   <trkpt lat="47.423606" lon="12.256674"><ele>1505.75</ele></trkpt>
   <trkpt lat="47.423372" lon="12.256908"><ele>1502.25</ele></trkpt>
   <trkpt lat="47.423287" lon="12.257011"><ele>1499.5</ele></trkpt>
   <trkpt lat="47.423202" lon="12.257072"><ele>1498</ele></trkpt>
   <trkpt lat="47.423158" lon="12.257118"><ele>1496.75</ele></trkpt>
   <trkpt lat="47.423096" lon="12.257134"><ele>1497</ele></trkpt>
   <trkpt lat="47.422833" lon="12.257036"><ele>1492.75</ele></trkpt>
   <trkpt lat="47.422737" lon="12.257027"><ele>1490.75</ele></trkpt>
   <trkpt lat="47.422419" lon="12.257074"><ele>1486.25</ele></trkpt>
   <trkpt lat="47.42233" lon="12.257127"><ele>1484.75</ele></trkpt>
   <trkpt lat="47.422179" lon="12.257223"><ele>1482</ele></trkpt>
   <trkpt lat="47.422099" lon="12.257257"><ele>1479.75</ele></trkpt>
   <trkpt lat="47.422005" lon="12.257267"><ele>1478</ele></trkpt>
   <trkpt lat="47.421886" lon="12.257237"><ele>1476.5</ele></trkpt>
   <trkpt lat="47.421811" lon="12.257206"><ele>1476.25</ele></trkpt>
   <trkpt lat="47.421765" lon="12.257203"><ele>1475.5</ele></trkpt>
   <trkpt lat="47.421726" lon="12.257237"><ele>1473.75</ele></trkpt>
   <trkpt lat="47.421722" lon="12.25729"><ele>1472.5</ele></trkpt>
   <trkpt lat="47.421743" lon="12.257348"><ele>1471.75</ele></trkpt>
   <trkpt lat="47.421866" lon="12.257502"><ele>1470.75</ele></trkpt>
   <trkpt lat="47.421929" lon="12.25765"><ele>1466.75</ele></trkpt>
   <trkpt lat="47.422054" lon="12.257759"><ele>1464</ele></trkpt>
   <trkpt lat="47.422216" lon="12.257832"><ele>1462</ele></trkpt>
   <trkpt lat="47.422579" lon="12.257935"><ele>1458.25</ele></trkpt>
   <trkpt lat="47.422731" lon="12.257936"><ele>1458.5</ele></trkpt>
   <trkpt lat="47.422759" lon="12.25797"><ele>1457.25</ele></trkpt>
   <trkpt lat="47.422768" lon="12.25801"><ele>1455.75</ele></trkpt>
   <trkpt lat="47.422753" lon="12.258053"><ele>1454</ele></trkpt>
   <trkpt lat="47.422712" lon="12.258081"><ele>1452.75</ele></trkpt>
   <trkpt lat="47.422579" lon="12.258112"><ele>1451.5</ele></trkpt>
   <trkpt lat="47.422248" lon="12.258232"><ele>1447.5</ele></trkpt>
   <trkpt lat="47.422115" lon="12.258333"><ele>1444</ele></trkpt>
   <trkpt lat="47.422001" lon="12.258376"><ele>1442.25</ele></trkpt>
   <trkpt lat="47.421892" lon="12.258396"><ele>1441</ele></trkpt>
   <trkpt lat="47.421747" lon="12.258384"><ele>1439.5</ele></trkpt>
   <trkpt lat="47.421545" lon="12.258349"><ele>1437.75</ele></trkpt>
   <trkpt lat="47.421149" lon="12.258398"><ele>1431</ele></trkpt>
   <trkpt lat="47.420936" lon="12.258401"><ele>1427.75</ele></trkpt>
   <trkpt lat="47.420641" lon="12.258384"><ele>1424</ele></trkpt>
   <trkpt lat="47.420282" lon="12.25819"><ele>1419.25</ele></trkpt>
   <trkpt lat="47.420198" lon="12.258155"><ele>1418.5</ele></trkpt>
   <trkpt lat="47.419682" lon="12.258021"><ele>1413.5</ele></trkpt>
   <trkpt lat="47.419296" lon="12.257939"><ele>1405.25</ele></trkpt>
   <trkpt lat="47.419148" lon="12.257899"><ele>1402.75</ele></trkpt>
   <trkpt lat="47.419101" lon="12.257873"><ele>1402.5</ele></trkpt>
   <trkpt lat="47.419073" lon="12.257822"><ele>1403.75</ele></trkpt>
   <trkpt lat="47.418991" lon="12.257721"><ele>1404</ele></trkpt>
   <trkpt lat="47.418956" lon="12.257731"><ele>1402.5</ele></trkpt>
   <trkpt lat="47.418939" lon="12.257766"><ele>1401</ele></trkpt>
   <trkpt lat="47.418939" lon="12.257824"><ele>1399</ele></trkpt>
   <trkpt lat="47.418972" lon="12.257885"><ele>1398</ele></trkpt>
   <trkpt lat="47.419035" lon="12.257963"><ele>1396.75</ele></trkpt>
   <trkpt lat="47.419117" lon="12.258045"><ele>1395.25</ele></trkpt>
   <trkpt lat="47.419204" lon="12.258124"><ele>1394.25</ele></trkpt>
   <trkpt lat="47.419429" lon="12.258305"><ele>1392</ele></trkpt>
   <trkpt lat="47.419645" lon="12.258436"><ele>1390</ele></trkpt>
   <trkpt lat="47.419785" lon="12.258553"><ele>1388.25</ele></trkpt>
   <trkpt lat="47.41986" lon="12.25863"><ele>1387.25</ele></trkpt>
   <trkpt lat="47.419942" lon="12.258734"><ele>1385.75</ele></trkpt>
   <trkpt lat="47.420434" lon="12.259282"><ele>1378.25</ele></trkpt>
   <trkpt lat="47.420624" lon="12.259401"><ele>1377</ele></trkpt>
   <trkpt lat="47.420774" lon="12.259549"><ele>1374.75</ele></trkpt>
   <trkpt lat="47.420992" lon="12.259808"><ele>1369.75</ele></trkpt>
   <trkpt lat="47.421119" lon="12.259966"><ele>1368.75</ele></trkpt>
   <trkpt lat="47.421447" lon="12.260208"><ele>1366.75</ele></trkpt>
   <trkpt lat="47.421776" lon="12.260555"><ele>1362.5</ele></trkpt>
   <trkpt lat="47.422073" lon="12.260702"><ele>1359.25</ele></trkpt>
   <trkpt lat="47.42237" lon="12.26072"><ele>1357.5</ele></trkpt>
   <trkpt lat="47.422532" lon="12.26066"><ele>1356.75</ele></trkpt>
   <trkpt lat="47.42263" lon="12.260547"><ele>1358.75</ele></trkpt>
   <trkpt lat="47.422712" lon="12.260542"><ele>1357.75</ele></trkpt>
   <trkpt lat="47.422889" lon="12.260647"><ele>1351.25</ele></trkpt>
   <trkpt lat="47.423115" lon="12.260586"><ele>1353.5</ele></trkpt>
   <trkpt lat="47.423615" lon="12.260691"><ele>1350</ele></trkpt>
   <trkpt lat="47.424031" lon="12.260718"><ele>1344.5</ele></trkpt>
   <trkpt lat="47.424161" lon="12.260623"><ele>1344.75</ele></trkpt>
   <trkpt lat="47.424262" lon="12.260245"><ele>1344.5</ele></trkpt>
   <trkpt lat="47.424333" lon="12.260092"><ele>1343.5</ele></trkpt>
   <trkpt lat="47.424463" lon="12.259961"><ele>1340.75</ele></trkpt>
   <trkpt lat="47.424573" lon="12.259779"><ele>1344</ele></trkpt>
   <trkpt lat="47.424655" lon="12.259719"><ele>1342.75</ele></trkpt>
   <trkpt lat="47.424751" lon="12.259748"><ele>1338.25</ele></trkpt>
   <trkpt lat="47.424877" lon="12.259848"><ele>1337.75</ele></trkpt>
   <trkpt lat="47.425009" lon="12.259924"><ele>1339.25</ele></trkpt>
   <trkpt lat="47.425219" lon="12.260116"><ele>1334.25</ele></trkpt>
   <trkpt lat="47.425604" lon="12.260208"><ele>1332.5</ele></trkpt>
   <trkpt lat="47.426042" lon="12.260429"><ele>1327.25</ele></trkpt>
   <trkpt lat="47.426244" lon="12.260465"><ele>1327</ele></trkpt>
   <trkpt lat="47.426645" lon="12.260505"><ele>1324.25</ele></trkpt>
   <trkpt lat="47.427103" lon="12.260499"><ele>1321.75</ele></trkpt>
   <trkpt lat="47.427269" lon="12.260555"><ele>1319.25</ele></trkpt>
   <trkpt lat="47.427461" lon="12.260644"><ele>1316.75</ele></trkpt>
   <trkpt lat="47.427601" lon="12.26062"><ele>1315.5</ele></trkpt>
   <trkpt lat="47.428013" lon="12.260386"><ele>1313.75</ele></trkpt>
   <trkpt lat="47.428255" lon="12.260365"><ele>1311</ele></trkpt>
   <trkpt lat="47.428488" lon="12.260447"><ele>1308.75</ele></trkpt>
   <trkpt lat="47.428961" lon="12.260531"><ele>1306.75</ele></trkpt>
   <trkpt lat="47.429142" lon="12.260594"><ele>1304</ele></trkpt>
   <trkpt lat="47.429711" lon="12.26051"><ele>1303.75</ele></trkpt>
   <trkpt lat="47.430118" lon="12.260371"><ele>1300.5</ele></trkpt>
   <trkpt lat="47.430346" lon="12.260363"><ele>1298.5</ele></trkpt>
   <trkpt lat="47.430607" lon="12.260398"><ele>1298</ele></trkpt>
   <trkpt lat="47.430922" lon="12.260344"><ele>1299.25</ele></trkpt>
   <trkpt lat="47.43131" lon="12.260397"><ele>1297.5</ele></trkpt>
   <trkpt lat="47.431519" lon="12.260386"><ele>1297</ele></trkpt>
   <trkpt lat="47.4319" lon="12.260289"><ele>1294.25</ele></trkpt>
   <trkpt lat="47.432049" lon="12.260232"><ele>1292.75</ele></trkpt>
   <trkpt lat="47.432209" lon="12.260144"><ele>1292</ele></trkpt>
   <trkpt lat="47.432339" lon="12.260056"><ele>1291</ele></trkpt>
   <trkpt lat="47.432439" lon="12.260004"><ele>1289.75</ele></trkpt>
   <trkpt lat="47.432617" lon="12.259991"><ele>1286.75</ele></trkpt>
   <trkpt lat="47.432751" lon="12.259965"><ele>1285.5</ele></trkpt>
   <trkpt lat="47.432877" lon="12.259896"><ele>1283.5</ele></trkpt>
   <trkpt lat="47.433064" lon="12.25972"><ele>1280.5</ele></trkpt>
   <trkpt lat="47.433199" lon="12.259522"><ele>1277.25</ele></trkpt>
   <trkpt lat="47.433299" lon="12.259231"><ele>1276.25</ele></trkpt>
   <trkpt lat="47.433348" lon="12.259024"><ele>1273.75</ele></trkpt>
   <trkpt lat="47.433397" lon="12.258773"><ele>1271.25</ele></trkpt>
   <trkpt lat="47.433509" lon="12.258392"><ele>1268.25</ele></trkpt>
   <trkpt lat="47.433641" lon="12.257904"><ele>1262</ele></trkpt>
   <trkpt lat="47.433739" lon="12.25758"><ele>1259.5</ele></trkpt>
   <trkpt lat="47.433861" lon="12.25713"><ele>1254.25</ele></trkpt>
   <trkpt lat="47.433876" lon="12.256935"><ele>1252.75</ele></trkpt>
   <trkpt lat="47.433876" lon="12.256613"><ele>1250.25</ele></trkpt>
   <trkpt lat="47.433864" lon="12.256186"><ele>1247.25</ele></trkpt>
   <trkpt lat="47.433879" lon="12.255914"><ele>1244.25</ele></trkpt>
   <trkpt lat="47.433917" lon="12.255623"><ele>1241.5</ele></trkpt>
   <trkpt lat="47.433926" lon="12.255496"><ele>1240.25</ele></trkpt>
   <trkpt lat="47.43392" lon="12.255163"><ele>1238.75</ele></trkpt>
   <trkpt lat="47.433963" lon="12.254952"><ele>1236.25</ele></trkpt>
   <trkpt lat="47.433968" lon="12.254883"><ele>1235.75</ele></trkpt>
   <trkpt lat="47.43396" lon="12.254776"><ele>1235.5</ele></trkpt>
   <trkpt lat="47.433931" lon="12.2546"><ele>1234.75</ele></trkpt>
   <trkpt lat="47.433918" lon="12.254472"><ele>1233.5</ele></trkpt>
   <trkpt lat="47.433914" lon="12.254381"><ele>1232.75</ele></trkpt>
   <trkpt lat="47.433919" lon="12.25429"><ele>1231.75</ele></trkpt>
   <trkpt lat="47.433937" lon="12.254142"><ele>1229.75</ele></trkpt>
   <trkpt lat="47.433926" lon="12.254049"><ele>1228.75</ele></trkpt>
   <trkpt lat="47.433907" lon="12.253978"><ele>1228.5</ele></trkpt>
   <trkpt lat="47.433842" lon="12.253852"><ele>1227.75</ele></trkpt>
   <trkpt lat="47.433848" lon="12.253763"><ele>1225.75</ele></trkpt>
   <trkpt lat="47.433871" lon="12.253734"><ele>1224.75</ele></trkpt>
   <trkpt lat="47.433893" lon="12.253726"><ele>1224.25</ele></trkpt>
   <trkpt lat="47.433911" lon="12.253734"><ele>1223.75</ele></trkpt>
   <trkpt lat="47.433948" lon="12.253774"><ele>1223.25</ele></trkpt>
   <trkpt lat="47.434056" lon="12.253919"><ele>1222.25</ele></trkpt>
   <trkpt lat="47.434202" lon="12.254134"><ele>1219.25</ele></trkpt>
   <trkpt lat="47.434396" lon="12.254377"><ele>1216</ele></trkpt>
   <trkpt lat="47.434432" lon="12.254445"><ele>1215.25</ele></trkpt>
   <trkpt lat="47.43446" lon="12.254558"><ele>1214</ele></trkpt>
   <trkpt lat="47.434455" lon="12.254778"><ele>1213.5</ele></trkpt>
   <trkpt lat="47.434468" lon="12.254859"><ele>1213</ele></trkpt>
   <trkpt lat="47.434484" lon="12.2549"><ele>1212.5</ele></trkpt>
   <trkpt lat="47.434513" lon="12.254949"><ele>1211.5</ele></trkpt>
   <trkpt lat="47.434624" lon="12.255104"><ele>1208.75</ele></trkpt>
   <trkpt lat="47.434669" lon="12.255192"><ele>1207.5</ele></trkpt>
   <trkpt lat="47.434698" lon="12.255274"><ele>1206.75</ele></trkpt>
   <trkpt lat="47.434725" lon="12.255403"><ele>1205.25</ele></trkpt>
   <trkpt lat="47.434729" lon="12.255497"><ele>1204.75</ele></trkpt>
   <trkpt lat="47.434702" lon="12.255837"><ele>1202</ele></trkpt>
   <trkpt lat="47.434705" lon="12.255954"><ele>1201.25</ele></trkpt>
   <trkpt lat="47.434712" lon="12.256068"><ele>1200.5</ele></trkpt>
   <trkpt lat="47.434744" lon="12.256309"><ele>1197.75</ele></trkpt>
   <trkpt lat="47.434789" lon="12.256756"><ele>1194.5</ele></trkpt>
   <trkpt lat="47.434848" lon="12.257019"><ele>1192</ele></trkpt>
   <trkpt lat="47.434877" lon="12.257123"><ele>1190.75</ele></trkpt>
   <trkpt lat="47.434998" lon="12.257408"><ele>1186.25</ele></trkpt>
   <trkpt lat="47.435032" lon="12.257511"><ele>1185.75</ele></trkpt>
   <trkpt lat="47.43506" lon="12.257663"><ele>1184.5</ele></trkpt>
   <trkpt lat="47.43507" lon="12.257749"><ele>1184.25</ele></trkpt>
   <trkpt lat="47.435073" lon="12.257818"><ele>1183.75</ele></trkpt>
   <trkpt lat="47.435068" lon="12.257907"><ele>1183.25</ele></trkpt>
   <trkpt lat="47.435072" lon="12.257944"><ele>1182.75</ele></trkpt>
   <trkpt lat="47.435079" lon="12.257972"><ele>1182.25</ele></trkpt>
   <trkpt lat="47.435112" lon="12.25803"><ele>1180.5</ele></trkpt>
   <trkpt lat="47.435146" lon="12.258025"><ele>1179.25</ele></trkpt>
   <trkpt lat="47.43517" lon="12.257997"><ele>1178.5</ele></trkpt>
   <trkpt lat="47.435201" lon="12.25788"><ele>1178.25</ele></trkpt>
   <trkpt lat="47.435222" lon="12.257816"><ele>1177.75</ele></trkpt>
   <trkpt lat="47.43534" lon="12.257526"><ele>1174.25</ele></trkpt>
   <trkpt lat="47.435478" lon="12.257144"><ele>1170.75</ele></trkpt>
   <trkpt lat="47.435657" lon="12.256322"><ele>1163.75</ele></trkpt>
   <trkpt lat="47.435725" lon="12.256038"><ele>1161</ele></trkpt>
   <trkpt lat="47.435796" lon="12.255637"><ele>1157.5</ele></trkpt>
   <trkpt lat="47.435886" lon="12.255351"><ele>1154</ele></trkpt>
   <trkpt lat="47.435954" lon="12.254843"><ele>1149.75</ele></trkpt>
   <trkpt lat="47.435985" lon="12.254544"><ele>1146.5</ele></trkpt>
   <trkpt lat="47.435995" lon="12.254341"><ele>1144.5</ele></trkpt>
   <trkpt lat="47.436013" lon="12.25379"><ele>1139</ele></trkpt>
   <trkpt lat="47.436016" lon="12.253546"><ele>1136.75</ele></trkpt>
   <trkpt lat="47.43601" lon="12.253146"><ele>1133.5</ele></trkpt>
   <trkpt lat="47.436017" lon="12.253053"><ele>1132.5</ele></trkpt>
   <trkpt lat="47.436066" lon="12.252866"><ele>1130.5</ele></trkpt>
   <trkpt lat="47.43607" lon="12.252802"><ele>1130.5</ele></trkpt>
   <trkpt lat="47.436057" lon="12.252698"><ele>1130.75</ele></trkpt>
   <trkpt lat="47.435996" lon="12.252493"><ele>1131.75</ele></trkpt>
   <trkpt lat="47.435902" lon="12.252113"><ele>1129.25</ele></trkpt>
   <trkpt lat="47.435851" lon="12.25195"><ele>1128.5</ele></trkpt>
   <trkpt lat="47.435814" lon="12.251792"><ele>1127.5</ele></trkpt>
   <trkpt lat="47.4358" lon="12.251719"><ele>1127</ele></trkpt>
   <trkpt lat="47.435811" lon="12.251651"><ele>1125.75</ele></trkpt>
   <trkpt lat="47.435855" lon="12.251616"><ele>1124.75</ele></trkpt>
   <trkpt lat="47.435926" lon="12.251653"><ele>1123.75</ele></trkpt>
   <trkpt lat="47.436064" lon="12.251801"><ele>1122.25</ele></trkpt>
   <trkpt lat="47.436309" lon="12.252141"><ele>1117.25</ele></trkpt>
   <trkpt lat="47.436365" lon="12.252234"><ele>1116</ele></trkpt>
   <trkpt lat="47.436397" lon="12.252301"><ele>1114.75</ele></trkpt>
   <trkpt lat="47.436416" lon="12.252364"><ele>1113.75</ele></trkpt>
   <trkpt lat="47.436441" lon="12.252509"><ele>1112.75</ele></trkpt>
   <trkpt lat="47.436476" lon="12.252868"><ele>1110</ele></trkpt>
   <trkpt lat="47.436478" lon="12.252993"><ele>1110.5</ele></trkpt>
   <trkpt lat="47.436489" lon="12.253063"><ele>1110.25</ele></trkpt>
   <trkpt lat="47.436527" lon="12.253101"><ele>1109</ele></trkpt>
   <trkpt lat="47.436566" lon="12.253093"><ele>1107.5</ele></trkpt>
   <trkpt lat="47.436585" lon="12.253037"><ele>1106.75</ele></trkpt>
   <trkpt lat="47.436595" lon="12.252963"><ele>1105.75</ele></trkpt>
   <trkpt lat="47.436657" lon="12.252296"><ele>1100.5</ele></trkpt>
   <trkpt lat="47.436697" lon="12.252049"><ele>1097.75</ele></trkpt>
   <trkpt lat="47.436714" lon="12.25189"><ele>1095.75</ele></trkpt>
   <trkpt lat="47.436718" lon="12.251716"><ele>1093</ele></trkpt>
   <trkpt lat="47.436712" lon="12.25157"><ele>1091.75</ele></trkpt>
   <trkpt lat="47.436714" lon="12.251404"><ele>1090</ele></trkpt>
   <trkpt lat="47.436759" lon="12.250928"><ele>1084.25</ele></trkpt>
   <trkpt lat="47.436739" lon="12.250734"><ele>1081.75</ele></trkpt>
   <trkpt lat="47.436709" lon="12.250651"><ele>1081</ele></trkpt>
   <trkpt lat="47.436671" lon="12.250588"><ele>1080.75</ele></trkpt>
   <trkpt lat="47.436555" lon="12.250525"><ele>1078.5</ele></trkpt>
   <trkpt lat="47.436492" lon="12.250515"><ele>1078</ele></trkpt>
   <trkpt lat="47.436425" lon="12.250521"><ele>1077.75</ele></trkpt>
   <trkpt lat="47.436328" lon="12.250546"><ele>1078.75</ele></trkpt>
   <trkpt lat="47.436266" lon="12.250537"><ele>1078.75</ele></trkpt>
   <trkpt lat="47.436247" lon="12.25051"><ele>1078.25</ele></trkpt>
   <trkpt lat="47.436237" lon="12.250473"><ele>1077.25</ele></trkpt>
   <trkpt lat="47.436244" lon="12.250438"><ele>1076.25</ele></trkpt>
   <trkpt lat="47.436261" lon="12.250414"><ele>1075.5</ele></trkpt>
   <trkpt lat="47.436454" lon="12.250387"><ele>1073.5</ele></trkpt>
   <trkpt lat="47.436692" lon="12.25026"><ele>1068.75</ele></trkpt>
   <trkpt lat="47.436789" lon="12.250248"><ele>1067</ele></trkpt>
   <trkpt lat="47.436874" lon="12.250259"><ele>1066.25</ele></trkpt>
   <trkpt lat="47.436944" lon="12.250311"><ele>1066.25</ele></trkpt>
   <trkpt lat="47.437052" lon="12.250504"><ele>1064.5</ele></trkpt>
   <trkpt lat="47.437132" lon="12.250756"><ele>1063.75</ele></trkpt>
   <trkpt lat="47.437156" lon="12.250789"><ele>1062.75</ele></trkpt>
   <trkpt lat="47.437177" lon="12.250798"><ele>1061.75</ele></trkpt>
   <trkpt lat="47.437207" lon="12.250779"><ele>1060.25</ele></trkpt>
   <trkpt lat="47.437229" lon="12.250693"><ele>1058.5</ele></trkpt>
   <trkpt lat="47.4372" lon="12.25048"><ele>1058</ele></trkpt>
   <trkpt lat="47.437194" lon="12.249957"><ele>1052</ele></trkpt>
   <trkpt lat="47.437184" lon="12.249859"><ele>1050.75</ele></trkpt>
   <trkpt lat="47.437156" lon="12.249764"><ele>1049.25</ele></trkpt>
   <trkpt lat="47.437125" lon="12.249698"><ele>1048</ele></trkpt>
   <trkpt lat="47.437099" lon="12.249675"><ele>1047.25</ele></trkpt>
   <trkpt lat="47.437057" lon="12.249673"><ele>1047</ele></trkpt>
   <trkpt lat="47.436856" lon="12.249728"><ele>1047.5</ele></trkpt>
   <trkpt lat="47.436761" lon="12.249734"><ele>1047</ele></trkpt>
   <trkpt lat="47.436717" lon="12.249647"><ele>1043.75</ele></trkpt>
   <trkpt lat="47.436745" lon="12.24957"><ele>1041.5</ele></trkpt>
   <trkpt lat="47.43691" lon="12.249506"><ele>1040.5</ele></trkpt>
   <trkpt lat="47.436961" lon="12.249476"><ele>1040.25</ele></trkpt>
   <trkpt lat="47.436996" lon="12.249434"><ele>1039.5</ele></trkpt>
   <trkpt lat="47.437084" lon="12.249262"><ele>1034.75</ele></trkpt>
   <trkpt lat="47.437152" lon="12.249158"><ele>1032.5</ele></trkpt>
   <trkpt lat="47.437196" lon="12.249129"><ele>1032.75</ele></trkpt>
   <trkpt lat="47.437249" lon="12.24911"><ele>1032.5</ele></trkpt>
   <trkpt lat="47.437298" lon="12.249116"><ele>1031.5</ele></trkpt>
   <trkpt lat="47.437356" lon="12.249139"><ele>1031</ele></trkpt>
   <trkpt lat="47.437466" lon="12.249248"><ele>1031</ele></trkpt>
   <trkpt lat="47.437518" lon="12.249335"><ele>1030.5</ele></trkpt>
   <trkpt lat="47.437698" lon="12.2497"><ele>1027</ele></trkpt>
   <trkpt lat="47.437849" lon="12.249964"><ele>1023</ele></trkpt>
   <trkpt lat="47.437944" lon="12.250251"><ele>1020.75</ele></trkpt>
   <trkpt lat="47.438027" lon="12.250491"><ele>1018</ele></trkpt>
   <trkpt lat="47.438057" lon="12.250537"><ele>1016.75</ele></trkpt>
   <trkpt lat="47.438094" lon="12.250553"><ele>1015</ele></trkpt>
   <trkpt lat="47.438127" lon="12.250537"><ele>1013.5</ele></trkpt>
   <trkpt lat="47.438139" lon="12.25049"><ele>1012.5</ele></trkpt>
   <trkpt lat="47.438136" lon="12.25042"><ele>1012.25</ele></trkpt>
   <trkpt lat="47.438084" lon="12.250248"><ele>1013.25</ele></trkpt>
   <trkpt lat="47.438082" lon="12.250139"><ele>1012.5</ele></trkpt>
   <trkpt lat="47.438122" lon="12.249871"><ele>1008.25</ele></trkpt>
   <trkpt lat="47.438105" lon="12.249468"><ele>1004.75</ele></trkpt>
   <trkpt lat="47.438074" lon="12.249201"><ele>1003.5</ele></trkpt>
   <trkpt lat="47.438055" lon="12.24911"><ele>1003</ele></trkpt>
   <trkpt lat="47.437992" lon="12.248965"><ele>1002.75</ele></trkpt>
   <trkpt lat="47.437998" lon="12.248897"><ele>1001.25</ele></trkpt>
   <trkpt lat="47.438044" lon="12.248888"><ele>999.25</ele></trkpt>
   <trkpt lat="47.438078" lon="12.248911"><ele>998.25</ele></trkpt>
   <trkpt lat="47.43838" lon="12.249491"><ele>992.75</ele></trkpt>
   <trkpt lat="47.4385" lon="12.249789"><ele>990</ele></trkpt>
   <trkpt lat="47.438611" lon="12.249957"><ele>988.25</ele></trkpt>
   <trkpt lat="47.438714" lon="12.250075"><ele>986.75</ele></trkpt>
   <trkpt lat="47.438774" lon="12.25021"><ele>986</ele></trkpt>
   <trkpt lat="47.43887" lon="12.250641"><ele>985</ele></trkpt>
   <trkpt lat="47.438909" lon="12.250705"><ele>984.5</ele></trkpt>
   <trkpt lat="47.439014" lon="12.250819"><ele>982.5</ele></trkpt>
   <trkpt lat="47.439128" lon="12.251048"><ele>979.5</ele></trkpt>
   <trkpt lat="47.439167" lon="12.25116"><ele>978.25</ele></trkpt>
   <trkpt lat="47.439197" lon="12.251203"><ele>978</ele></trkpt>
   <trkpt lat="47.439389" lon="12.251258"><ele>975</ele></trkpt>
   <trkpt lat="47.439424" lon="12.251296"><ele>975</ele></trkpt>
   <trkpt lat="47.439467" lon="12.251393"><ele>975.5</ele></trkpt>
   <trkpt lat="47.439513" lon="12.251707"><ele>976.25</ele></trkpt>
   <trkpt lat="47.439556" lon="12.251777"><ele>975.5</ele></trkpt>
   <trkpt lat="47.439607" lon="12.251784"><ele>974.75</ele></trkpt>
   <trkpt lat="47.43968" lon="12.251582"><ele>972.25</ele></trkpt>
   <trkpt lat="47.439722" lon="12.251528"><ele>971</ele></trkpt>
   <trkpt lat="47.439763" lon="12.251515"><ele>969.75</ele></trkpt>
   <trkpt lat="47.439812" lon="12.251539"><ele>968.75</ele></trkpt>
   <trkpt lat="47.439882" lon="12.251664"><ele>967.75</ele></trkpt>
   <trkpt lat="47.439942" lon="12.251813"><ele>966.75</ele></trkpt>
   <trkpt lat="47.440032" lon="12.252007"><ele>964.5</ele></trkpt>
   <trkpt lat="47.440126" lon="12.252241"><ele>962.75</ele></trkpt>
   <trkpt lat="47.440174" lon="12.252387"><ele>961.25</ele></trkpt>
   <trkpt lat="47.44029" lon="12.252682"><ele>958</ele></trkpt>
   <trkpt lat="47.440326" lon="12.252712"><ele>957</ele></trkpt>
   <trkpt lat="47.440362" lon="12.252718"><ele>955.75</ele></trkpt>
   <trkpt lat="47.440375" lon="12.252677"><ele>955.25</ele></trkpt>
   <trkpt lat="47.440376" lon="12.252584"><ele>955.25</ele></trkpt>
   <trkpt lat="47.44036" lon="12.252442"><ele>955.25</ele></trkpt>
   <trkpt lat="47.440376" lon="12.252366"><ele>954.5</ele></trkpt>
   <trkpt lat="47.440517" lon="12.252028"><ele>949.5</ele></trkpt>
   <trkpt lat="47.440618" lon="12.251691"><ele>946</ele></trkpt>
   <trkpt lat="47.440755" lon="12.250963"><ele>939.5</ele></trkpt>
   <trkpt lat="47.440968" lon="12.249926"><ele>929.25</ele></trkpt>
   <trkpt lat="47.441019" lon="12.249732"><ele>927.5</ele></trkpt>
   <trkpt lat="47.441231" lon="12.249052"><ele>919.75</ele></trkpt>
   <trkpt lat="47.441315" lon="12.248727"><ele>916.5</ele></trkpt>
   <trkpt lat="47.441323" lon="12.248665"><ele>916</ele></trkpt>
   <trkpt lat="47.441312" lon="12.248457"><ele>914</ele></trkpt>
   <trkpt lat="47.441266" lon="12.248125"><ele>910.75</ele></trkpt>
   <trkpt lat="47.441283" lon="12.248034"><ele>909.25</ele></trkpt>
   <trkpt lat="47.441337" lon="12.247853"><ele>907.25</ele></trkpt>
   <trkpt lat="47.44139" lon="12.247799"><ele>906</ele></trkpt>
   <trkpt lat="47.441429" lon="12.247731"><ele>905.75</ele></trkpt>
   <trkpt lat="47.441488" lon="12.247466"><ele>904.75</ele></trkpt>
   <trkpt lat="47.441511" lon="12.24726"><ele>903.5</ele></trkpt>
   <trkpt lat="47.441546" lon="12.247143"><ele>902.75</ele></trkpt>
   <trkpt lat="47.441722" lon="12.246667"><ele>896.75</ele></trkpt>
   <trkpt lat="47.44176" lon="12.246634"><ele>896.25</ele></trkpt>
   <trkpt lat="47.441811" lon="12.246626"><ele>896</ele></trkpt>
   <trkpt lat="47.441863" lon="12.246631"><ele>896</ele></trkpt>
   <trkpt lat="47.441979" lon="12.246719"><ele>895.25</ele></trkpt>
   <trkpt lat="47.442096" lon="12.246887"><ele>892.75</ele></trkpt>
   <trkpt lat="47.442202" lon="12.247135"><ele>890.25</ele></trkpt>
   <trkpt lat="47.442277" lon="12.247359"><ele>889.75</ele></trkpt>
   <trkpt lat="47.442329" lon="12.247486"><ele>889.25</ele></trkpt>
   <trkpt lat="47.442376" lon="12.247565"><ele>888.25</ele></trkpt>
   <trkpt lat="47.442445" lon="12.247658"><ele>886.25</ele></trkpt>
   <trkpt lat="47.442546" lon="12.247836"><ele>883.25</ele></trkpt>
   <trkpt lat="47.442592" lon="12.247996"><ele>881.25</ele></trkpt>
   <trkpt lat="47.442561" lon="12.248463"><ele>880.75</ele></trkpt>
   <trkpt lat="47.44257" lon="12.248541"><ele>880.5</ele></trkpt>
   <trkpt lat="47.442604" lon="12.248605"><ele>880</ele></trkpt>
   <trkpt lat="47.442666" lon="12.248618"><ele>879</ele></trkpt>
   <trkpt lat="47.442716" lon="12.248596"><ele>877.75</ele></trkpt>
   <trkpt lat="47.442722" lon="12.248506"><ele>876.75</ele></trkpt>
   <trkpt lat="47.442718" lon="12.248374"><ele>875.5</ele></trkpt>
   <trkpt lat="47.442731" lon="12.248278"><ele>874.75</ele></trkpt>
   <trkpt lat="47.442827" lon="12.248074"><ele>872.75</ele></trkpt>
   <trkpt lat="47.44286" lon="12.247958"><ele>872.75</ele></trkpt>
   <trkpt lat="47.442898" lon="12.247789"><ele>873</ele></trkpt>
   <trkpt lat="47.442921" lon="12.24765"><ele>873.25</ele></trkpt>
   <trkpt lat="47.44292" lon="12.247503"><ele>873.75</ele></trkpt>
   <trkpt lat="47.442901" lon="12.247153"><ele>871.25</ele></trkpt>
   <trkpt lat="47.442914" lon="12.246745"><ele>868.75</ele></trkpt>
   <trkpt lat="47.442896" lon="12.246576"><ele>869</ele></trkpt>
   <trkpt lat="47.442852" lon="12.246426"><ele>869.5</ele></trkpt>
   <trkpt lat="47.442822" lon="12.246289"><ele>868.5</ele></trkpt>
   <trkpt lat="47.442816" lon="12.246078"><ele>866.75</ele></trkpt>
   <trkpt lat="47.442831" lon="12.245978"><ele>866.5</ele></trkpt>
   <trkpt lat="47.442877" lon="12.245885"><ele>865.5</ele></trkpt>
   <trkpt lat="47.442918" lon="12.245766"><ele>864.25</ele></trkpt>
   <trkpt lat="47.442939" lon="12.245656"><ele>863.5</ele></trkpt>
   <trkpt lat="47.442962" lon="12.245483"><ele>862</ele></trkpt>
   <trkpt lat="47.442992" lon="12.245205"><ele>859</ele></trkpt>
   <trkpt lat="47.44303" lon="12.245059"><ele>857.75</ele></trkpt>
   <trkpt lat="47.443093" lon="12.244907"><ele>856.5</ele></trkpt>
   <trkpt lat="47.443136" lon="12.244713"><ele>856</ele></trkpt>
   <trkpt lat="47.443157" lon="12.244542"><ele>854</ele></trkpt>
   <trkpt lat="47.443183" lon="12.244114"><ele>850.25</ele></trkpt>
   <trkpt lat="47.443224" lon="12.2439"><ele>848.5</ele></trkpt>
   <trkpt lat="47.443251" lon="12.243553"><ele>846</ele></trkpt>
   <trkpt lat="47.443324" lon="12.242919"><ele>838.25</ele></trkpt>
   <trkpt lat="47.443358" lon="12.242678"><ele>835</ele></trkpt>
   <trkpt lat="47.443382" lon="12.242414"><ele>832</ele></trkpt>
   <trkpt lat="47.443382" lon="12.2422"><ele>829.75</ele></trkpt>
   <trkpt lat="47.443362" lon="12.242111"><ele>828.5</ele></trkpt>
   <trkpt lat="47.44331" lon="12.242037"><ele>828</ele></trkpt>
   <trkpt lat="47.443095" lon="12.241877"><ele>827</ele></trkpt>
   <trkpt lat="47.443078" lon="12.241817"><ele>826.25</ele></trkpt>
   <trkpt lat="47.443086" lon="12.241769"><ele>825.25</ele></trkpt>
   <trkpt lat="47.44312" lon="12.241727"><ele>824</ele></trkpt>
   <trkpt lat="47.443175" lon="12.241694"><ele>822.75</ele></trkpt>
   <trkpt lat="47.443416" lon="12.241659"><ele>818.75</ele></trkpt>
   <trkpt lat="47.443496" lon="12.24167"><ele>817.5</ele></trkpt>
   <trkpt lat="47.443576" lon="12.241711"><ele>816.25</ele></trkpt>
   <trkpt lat="47.443736" lon="12.241824"><ele>813.5</ele></trkpt>
   <trkpt lat="47.443774" lon="12.241831"><ele>813</ele></trkpt>
   <trkpt lat="47.443825" lon="12.241814"><ele>812.25</ele></trkpt>
   <trkpt lat="47.443927" lon="12.241689"><ele>810.5</ele></trkpt>
   <trkpt lat="47.443927" lon="12.241694"><ele>810.75</ele></trkpt>
   <trkpt lat="47.443927" lon="12.241689"><ele>810.5</ele></trkpt>
   <trkpt lat="47.443932" lon="12.241598"><ele>810.5</ele></trkpt>
   <trkpt lat="47.443946" lon="12.241491"><ele>810.75</ele></trkpt>
   <trkpt lat="47.443963" lon="12.241413"><ele>810.75</ele></trkpt>
   <trkpt lat="47.44399" lon="12.241367"><ele>810.5</ele></trkpt>
   <trkpt lat="47.444025" lon="12.241336"><ele>810</ele></trkpt>
   <trkpt lat="47.444056" lon="12.24133"><ele>809.5</ele></trkpt>
   <trkpt lat="47.444125" lon="12.241349"><ele>808.5</ele></trkpt>
   <trkpt lat="47.444207" lon="12.241405"><ele>807.25</ele></trkpt>
   <trkpt lat="47.444488" lon="12.241653"><ele>802.75</ele></trkpt>
   <trkpt lat="47.44464" lon="12.241774"><ele>801.5</ele></trkpt>
   <trkpt lat="47.444732" lon="12.241845"><ele>800.25</ele></trkpt>
   <trkpt lat="47.444822" lon="12.241896"><ele>799</ele></trkpt>
   <trkpt lat="47.445121" lon="12.242001"><ele>795.25</ele></trkpt>
   <trkpt lat="47.445769" lon="12.242194"><ele>789.25</ele></trkpt>
   <trkpt lat="47.445998" lon="12.242257"><ele>786.25</ele></trkpt>
   <trkpt lat="47.44611" lon="12.242247"><ele>785</ele></trkpt>
   <trkpt lat="47.446147" lon="12.242224"><ele>784.75</ele></trkpt>
   <trkpt lat="47.445919" lon="12.241442"><ele>784</ele></trkpt>
   <trkpt lat="47.44588" lon="12.241324"><ele>783</ele></trkpt>
   <trkpt lat="47.445804" lon="12.241044"><ele>782</ele></trkpt>
   <trkpt lat="47.445762" lon="12.240788"><ele>783.75</ele></trkpt>
   <trkpt lat="47.445646" lon="12.239962"><ele>784.75</ele></trkpt>
   <trkpt lat="47.44557" lon="12.239385"><ele>782.75</ele></trkpt>
   <trkpt lat="47.445489" lon="12.238667"><ele>782.25</ele></trkpt>
   <trkpt lat="47.445445" lon="12.238205"><ele>782</ele></trkpt>
   <trkpt lat="47.445426" lon="12.237931"><ele>781.25</ele></trkpt>
   <trkpt lat="47.44541" lon="12.237673"><ele>780.25</ele></trkpt>
   <trkpt lat="47.445401" lon="12.237296"><ele>778.75</ele></trkpt>
   <trkpt lat="47.445352" lon="12.236903"><ele>778</ele></trkpt>
   <trkpt lat="47.445276" lon="12.236475"><ele>778</ele></trkpt>
   <trkpt lat="47.44519" lon="12.236084"><ele>777.25</ele></trkpt>
   <trkpt lat="47.445118" lon="12.23586"><ele>777.5</ele></trkpt>
   <trkpt lat="47.445043" lon="12.23572"><ele>777.25</ele></trkpt>
   <trkpt lat="47.444656" lon="12.235339"><ele>778.25</ele></trkpt>
   <trkpt lat="47.444423" lon="12.235075"><ele>779.25</ele></trkpt>
   <trkpt lat="47.443895" lon="12.23436"><ele>780.5</ele></trkpt>
   <trkpt lat="47.443758" lon="12.234204"><ele>781</ele></trkpt>
   <trkpt lat="47.443638" lon="12.234094"><ele>781.25</ele></trkpt>
   <trkpt lat="47.443443" lon="12.233821"><ele>780.75</ele></trkpt>
   <trkpt lat="47.442958" lon="12.233106"><ele>779.5</ele></trkpt>
   <trkpt lat="47.442517" lon="12.232441"><ele>779.25</ele></trkpt>
   <trkpt lat="47.442471" lon="12.232354"><ele>779</ele></trkpt>
   <trkpt lat="47.442422" lon="12.23224"><ele>778.5</ele></trkpt>
   <trkpt lat="47.442409" lon="12.232193"><ele>778.5</ele></trkpt>
   <trkpt lat="47.442385" lon="12.232122"><ele>778.25</ele></trkpt>
   <trkpt lat="47.442306" lon="12.231774"><ele>777.75</ele></trkpt>
   <trkpt lat="47.44228" lon="12.231676"><ele>777.5</ele></trkpt>
   <trkpt lat="47.442242" lon="12.231565"><ele>777.25</ele></trkpt>
   <trkpt lat="47.442191" lon="12.231443"><ele>777.25</ele></trkpt>
   <trkpt lat="47.441835" lon="12.230677"><ele>777.5</ele></trkpt>
   <trkpt lat="47.441763" lon="12.230534"><ele>777.75</ele></trkpt>
   <trkpt lat="47.441703" lon="12.230386"><ele>777.75</ele></trkpt>
   <trkpt lat="47.441631" lon="12.230262"><ele>778</ele></trkpt>
   <trkpt lat="47.441371" lon="12.229865"><ele>777.5</ele></trkpt>
   <trkpt lat="47.441172" lon="12.229533"><ele>778.5</ele></trkpt>
   <trkpt lat="47.440981" lon="12.229205"><ele>778.5</ele></trkpt>
   <trkpt lat="47.440695" lon="12.228691"><ele>779.25</ele></trkpt>
   <trkpt lat="47.440603" lon="12.22849"><ele>779.5</ele></trkpt>
   <trkpt lat="47.440537" lon="12.228263"><ele>778.75</ele></trkpt>
   <trkpt lat="47.44042" lon="12.227908"><ele>778</ele></trkpt>
   <trkpt lat="47.440259" lon="12.227516"><ele>778</ele></trkpt>
   <trkpt lat="47.440243" lon="12.227432"><ele>777.75</ele></trkpt>
   <trkpt lat="47.440131" lon="12.227253"><ele>777.5</ele></trkpt>
   <trkpt lat="47.440016" lon="12.227031"><ele>777.25</ele></trkpt>
   <trkpt lat="47.439821" lon="12.226589"><ele>777</ele></trkpt>
   <trkpt lat="47.439781" lon="12.22648"><ele>776.75</ele></trkpt>
   <trkpt lat="47.439737" lon="12.226403"><ele>776.75</ele></trkpt>
   <trkpt lat="47.439705" lon="12.226347"><ele>776.75</ele></trkpt>
   <trkpt lat="47.439677" lon="12.226309"><ele>777</ele></trkpt>
   <trkpt lat="47.439658" lon="12.226284"><ele>777</ele></trkpt>
   <trkpt lat="47.439603" lon="12.226212"><ele>777</ele></trkpt>
   <trkpt lat="47.439488" lon="12.226099"><ele>777.5</ele></trkpt>
   <trkpt lat="47.439407" lon="12.22602"><ele>778</ele></trkpt>
   <trkpt lat="47.439309" lon="12.22594"><ele>778.25</ele></trkpt>
   <trkpt lat="47.438929" lon="12.225598"><ele>779</ele></trkpt>
   <trkpt lat="47.438835" lon="12.22552"><ele>779</ele></trkpt>
   <trkpt lat="47.438561" lon="12.225353"><ele>779.5</ele></trkpt>
   <trkpt lat="47.43824" lon="12.225152"><ele>780.75</ele></trkpt>
   <trkpt lat="47.438027" lon="12.225013"><ele>781</ele></trkpt>
   <trkpt lat="47.43773" lon="12.224815"><ele>781.25</ele></trkpt>
   <trkpt lat="47.437399" lon="12.224626"><ele>781.25</ele></trkpt>
   <trkpt lat="47.437031" lon="12.224483"><ele>781.75</ele></trkpt>
   <trkpt lat="47.436617" lon="12.224385"><ele>781.75</ele></trkpt>
   <trkpt lat="47.43655" lon="12.224362"><ele>782</ele></trkpt>
   <trkpt lat="47.436493" lon="12.224343"><ele>782.25</ele></trkpt>
   <trkpt lat="47.436452" lon="12.224326"><ele>782.25</ele></trkpt>
   <trkpt lat="47.436161" lon="12.224171"><ele>782.75</ele></trkpt>
   <trkpt lat="47.436013" lon="12.224083"><ele>784</ele></trkpt>
   <trkpt lat="47.435855" lon="12.223976"><ele>785</ele></trkpt>
   <trkpt lat="47.435825" lon="12.223938"><ele>785</ele></trkpt>
   <trkpt lat="47.435794" lon="12.22388"><ele>785.25</ele></trkpt>
   <trkpt lat="47.435769" lon="12.223804"><ele>785.25</ele></trkpt>
   <trkpt lat="47.43555" lon="12.223832"><ele>786.5</ele></trkpt>
   <trkpt lat="47.435453" lon="12.223862"><ele>787</ele></trkpt>
   <trkpt lat="47.435402" lon="12.2239"><ele>787.5</ele></trkpt>
   <trkpt lat="47.435365" lon="12.223945"><ele>787.75</ele></trkpt>
   <trkpt lat="47.435344" lon="12.224"><ele>788</ele></trkpt>
   <trkpt lat="47.435342" lon="12.224065"><ele>788.25</ele></trkpt>
   <trkpt lat="47.435375" lon="12.224198"><ele>788.75</ele></trkpt>
   <trkpt lat="47.435375" lon="12.224226"><ele>789</ele></trkpt>
   <trkpt lat="47.435365" lon="12.224255"><ele>789</ele></trkpt>
   <trkpt lat="47.435326" lon="12.224318"><ele>789.75</ele></trkpt>
   <trkpt lat="47.435272" lon="12.22436"><ele>790.25</ele></trkpt>
   <trkpt lat="47.435135" lon="12.224415"><ele>791.75</ele></trkpt>
   <trkpt lat="47.435034" lon="12.22447"><ele>792.75</ele></trkpt>
   <trkpt lat="47.434921" lon="12.224164"><ele>790.75</ele></trkpt>
   <trkpt lat="47.434885" lon="12.22411"><ele>791</ele></trkpt>
   <trkpt lat="47.43448" lon="12.22374"><ele>793.5</ele></trkpt>
   <trkpt lat="47.434399" lon="12.223645"><ele>794.25</ele></trkpt>
   <trkpt lat="47.434338" lon="12.223538"><ele>794.25</ele></trkpt>
   <trkpt lat="47.433607" lon="12.222567"><ele>793.5</ele></trkpt>
   <trkpt lat="47.433484" lon="12.222348"><ele>793</ele></trkpt>
   <trkpt lat="47.433385" lon="12.222093"><ele>792.25</ele></trkpt>
   <trkpt lat="47.433263" lon="12.221651"><ele>792</ele></trkpt>
   <trkpt lat="47.433194" lon="12.221436"><ele>791.5</ele></trkpt>
   <trkpt lat="47.433032" lon="12.221045"><ele>791</ele></trkpt>
   <trkpt lat="47.432906" lon="12.220733"><ele>791.25</ele></trkpt>
   <trkpt lat="47.432825" lon="12.220516"><ele>790.75</ele></trkpt>
   <trkpt lat="47.432752" lon="12.220351"><ele>791</ele></trkpt>
   <trkpt lat="47.432628" lon="12.220099"><ele>790.5</ele></trkpt>
   <trkpt lat="47.432618" lon="12.220073"><ele>790.5</ele></trkpt>
   <trkpt lat="47.432497" lon="12.219766"><ele>791</ele></trkpt>
   <trkpt lat="47.432472" lon="12.2197"><ele>791</ele></trkpt>
   <trkpt lat="47.432347" lon="12.219383"><ele>791</ele></trkpt>
   <trkpt lat="47.432222" lon="12.219054"><ele>791.5</ele></trkpt>
   <trkpt lat="47.432197" lon="12.218908"><ele>791</ele></trkpt>
   <trkpt lat="47.432183" lon="12.218761"><ele>790.5</ele></trkpt>
   <trkpt lat="47.43218" lon="12.218667"><ele>790.25</ele></trkpt>
   <trkpt lat="47.432178" lon="12.218463"><ele>790</ele></trkpt>
   <trkpt lat="47.432179" lon="12.218289"><ele>789.75</ele></trkpt>
   <trkpt lat="47.43218" lon="12.218243"><ele>789.75</ele></trkpt>
   <trkpt lat="47.43218" lon="12.218018"><ele>789</ele></trkpt>
   <trkpt lat="47.432186" lon="12.21766"><ele>787.75</ele></trkpt>
   <trkpt lat="47.43223" lon="12.216951"><ele>786.75</ele></trkpt>
   <trkpt lat="47.43224" lon="12.216631"><ele>786</ele></trkpt>
   <trkpt lat="47.432227" lon="12.216439"><ele>786</ele></trkpt>
   <trkpt lat="47.432192" lon="12.215842"><ele>785</ele></trkpt>
   <trkpt lat="47.432185" lon="12.215605"><ele>785</ele></trkpt>
   <trkpt lat="47.432128" lon="12.215608"><ele>785</ele></trkpt>
   <trkpt lat="47.432108" lon="12.215599"><ele>785</ele></trkpt>
   <trkpt lat="47.4321" lon="12.215571"><ele>785</ele></trkpt>
   <trkpt lat="47.432093" lon="12.215474"><ele>784.5</ele></trkpt>
   <trkpt lat="47.432062" lon="12.215422"><ele>784.5</ele></trkpt>
   <trkpt lat="47.4319" lon="12.215633"><ele>785.25</ele></trkpt>
   <trkpt lat="47.431812" lon="12.215749"><ele>785.5</ele></trkpt>
   <trkpt lat="47.431705" lon="12.215888"><ele>786.25</ele></trkpt>
   <trkpt lat="47.431643" lon="12.21598"><ele>787</ele></trkpt>
   <trkpt lat="47.431607" lon="12.216033"><ele>787.5</ele></trkpt>
   <trkpt lat="47.431436" lon="12.216271"><ele>789.25</ele></trkpt>
   <trkpt lat="47.431202" lon="12.216588"><ele>790.75</ele></trkpt>
   <trkpt lat="47.431311" lon="12.216754"><ele>790.5</ele></trkpt>
  </trkseg>
 </trk>
</gpx>